{"type": "FeatureCollection", "features": [{"type": "Feature", "geometry": {"type": "Point", "coordinates": [2.3708234, 48.8474727]}, "properties": {"level": 0.0, "kind": "yes", "name": "", "entrance": true}}, {"type": "Feature", "geometry": {"type": "Point", "coordinates": [2.3701031, 48.847065]}, "properties": {"level": 0.0, "kind": "yes", "name": "", "entrance": true}}, {"type": "Feature", "geometry": {"type": "Point", "coordinates": [2.3702584, 48.8471529]}, "properties": {"level": 0.0, "kind": "yes", "name": "", "entrance": true}}, {"type": "Feature", "geometry": {"type": "Point", "coordinates": [2.370108, 48.8474243]}, "properties": {"level": 0.0, "kind": "yes", "name": "", "entrance": true}}, {"type": "Feature", "geometry": {"type": "Point", "coordinates": [2.3704229, 48.8472462]}, "properties": {"level": 0.0, "kind": "yes", "name": "", "entrance": true}}, {"type": "Feature", "geometry": {"type": "Point", "coordinates": [2.3706008, 48.8473468]}, "properties": {"level": 0.0, "kind": "yes", "name": "", "entrance": true}}, {"type": "Feature", "geometry": {"type": "Point", "coordinates": [2.3704674, 48.8456668]}, "properties": {"level": 0.0, "kind": "no", "name": "", "entrance": true}}, {"type": "Feature", "geometry": {"type": "Point", "coordinates": [2.3705555, 48.8457281]}, "properties": {"level": 0.0, "kind": "yes", "name": "", "entrance": true}}, {"type": "Feature", "geometry": {"type": "Point", "coordinates": [2.3705821, 48.8457466]}, "properties": {"level": 0.0, "kind": "yes", "name": "", "entrance": true}}, {"type": "Feature", "geometry": {"type": "Point", "coordinates": [2.3707981, 48.8468869]}, "properties": {"level": 0.0, "kind": "home", "name": "", "entrance": true}}, {"type": "Feature", "geometry": {"type": "Point", "coordinates": [2.3708748, 48.8469342]}, "properties": {"level": 0.0, "kind": "home", "name": "", "entrance": true}}, {"type": "Feature", "geometry": {"type": "Point", "coordinates": [2.3709504, 48.8469809]}, "properties": {"level": 0.0, "kind": "home", "name": "", "entrance": true}}, {"type": "Feature", "geometry": {"type": "Point", "coordinates": [2.3704826, 48.8460035]}, "properties": {"level": 0.0, "kind": "yes", "name": "", "entrance": true}}, {"type": "Feature", "geometry": {"type": "Point", "coordinates": [2.370264, 48.8461567]}, "properties": {"level": 0.0, "kind": "yes", "name": "", "entrance": true}}, {"type": "Feature", "geometry": {"type": "Point", "coordinates": [2.3710267, 48.8470273]}, "properties": {"level": 0.0, "kind": "home", "name": "", "entrance": true}}, {"type": "Feature", "geometry": {"type": "Point", "coordinates": [2.3711045, 48.8470761]}, "properties": {"level": 0.0, "kind": "home", "name": "", "entrance": true}}, {"type": "Feature", "geometry": {"type": "Point", "coordinates": [2.371178, 48.8471202]}, "properties": {"level": 0.0, "kind": "home", "name": "", "entrance": true}}, {"type": "Feature", "geometry": {"type": "Point", "coordinates": [2.3712534, 48.8471671]}, "properties": {"level": 0.0, "kind": "home", "name": "", "entrance": true}}, {"type": "Feature", "geometry": {"type": "Point", "coordinates": [2.371326, 48.8471191]}, "properties": {"level": 0.0, "kind": "staircase", "name": "", "entrance": true}}, {"type": "Feature", "geometry": {"type": "Point", "coordinates": [2.3713282, 48.8472137]}, "properties": {"level": 0.0, "kind": "staircase", "name": "", "entrance": true}}, {"type": "Feature", "geometry": {"type": "Point", "coordinates": [2.3714044, 48.8471688]}, "properties": {"level": 0.0, "kind": "staircase", "name": "", "entrance": true}}, {"type": "Feature", "geometry": {"type": "Point", "coordinates": [2.3743949, 48.8461917]}, "properties": {"level": 0.0, "kind": "yes", "name": "", "entrance": true}}, {"type": "Feature", "geometry": {"type": "Point", "coordinates": [2.3744329, 48.8462468]}, "properties": {"level": 0.0, "kind": "yes", "name": "", "entrance": true}}, {"type": "Feature", "geometry": {"type": "Point", "coordinates": [2.374544, 48.8464081]}, "properties": {"level": 0.0, "kind": "yes", "name": "", "entrance": true}}, {"type": "Feature", "geometry": {"type": "Point", "coordinates": [2.3746093, 48.8465029]}, "properties": {"level": 0.0, "kind": "yes", "name": "", "entrance": true}}, {"type": "Feature", "geometry": {"type": "Point", "coordinates": [2.3747193, 48.8466627]}, "properties": {"level": 0.0, "kind": "yes", "name": "", "entrance": true}}, {"type": "Feature", "geometry": {"type": "Point", "coordinates": [2.3747906, 48.8467662]}, "properties": {"level": 0.0, "kind": "yes", "name": "", "entrance": true}}, {"type": "Feature", "geometry": {"type": "Point", "coordinates": [2.3702464, 48.8456067]}, "properties": {"level": 0.0, "kind": "yes", "name": "", "entrance": true}}, {"type": "Feature", "geometry": {"type": "Point", "coordinates": [2.3742301, 48.8460614]}, "properties": {"level": 0.0, "kind": "yes", "name": "", "entrance": true}}, {"type": "Feature", "geometry": {"type": "Point", "coordinates": [2.3702033, 48.8456018]}, "properties": {"level": 0.0, "kind": "yes", "name": "", "entrance": true}}, {"type": "Feature", "geometry": {"type": "Point", "coordinates": [2.3713759, 48.8450594]}, "properties": {"level": 0.0, "kind": "main", "name": "", "entrance": true}}, {"type": "Feature", "geometry": {"type": "Point", "coordinates": [2.3733186, 48.8435214]}, "properties": {"level": 0.0, "kind": "main", "name": "", "entrance": true}}, {"type": "Feature", "geometry": {"type": "Point", "coordinates": [2.3715145, 48.8448784]}, "properties": {"level": 0.0, "kind": "yes", "name": "", "entrance": true}}, {"type": "Feature", "geometry": {"type": "Point", "coordinates": [2.3735136, 48.8451803]}, "properties": {"level": 1.0, "kind": "main", "name": "Place Louis Armand", "entrance": true}}, {"type": "Feature", "geometry": {"type": "Point", "coordinates": [2.3745829, 48.8434362]}, "properties": {"level": 0.0, "kind": "main", "name": "Rue de Bercy", "entrance": true}}, {"type": "Feature", "geometry": {"type": "Point", "coordinates": [2.3730552, 48.8448149]}, "properties": {"level": 1.0, "kind": "main", "name": "Tour de l'Horloge", "entrance": true}}, {"type": "Feature", "geometry": {"type": "Point", "coordinates": [2.3730171, 48.8442588]}, "properties": {"level": 1.0, "kind": "main", "name": "Centre Gamma", "entrance": true}}, {"type": "Feature", "geometry": {"type": "Point", "coordinates": [2.3765816, 48.8447588]}, "properties": {"level": 0.0, "kind": "main", "name": "", "entrance": true}}, {"type": "Feature", "geometry": {"type": "Point", "coordinates": [2.3764547, 48.8463346]}, "properties": {"level": 0.0, "kind": "main", "name": "", "entrance": true}}, {"type": "Feature", "geometry": {"type": "Point", "coordinates": [2.3758272, 48.8426216]}, "properties": {"level": 0.0, "kind": "yes", "name": "", "entrance": true}}, {"type": "Feature", "geometry": {"type": "Point", "coordinates": [2.3743458, 48.8435519]}, "properties": {"level": 0.0, "kind": "main", "name": "", "entrance": true}}, {"type": "Feature", "geometry": {"type": "Point", "coordinates": [2.3730029, 48.8437488]}, "properties": {"level": 0.0, "kind": "main", "name": "", "entrance": true}}, {"type": "Feature", "geometry": {"type": "Point", "coordinates": [2.3761103, 48.8444967]}, "properties": {"level": 0.0, "kind": "yes", "name": "", "entrance": true}}, {"type": "Feature", "geometry": {"type": "Point", "coordinates": [2.3743228, 48.8452121]}, "properties": {"level": 1.0, "kind": "main", "name": "", "entrance": true}}, {"type": "Feature", "geometry": {"type": "Point", "coordinates": [2.3742715, 48.8452394]}, "properties": {"level": 1.0, "kind": "main", "name": "", "entrance": true}}, {"type": "Feature", "geometry": {"type": "Point", "coordinates": [2.3730724, 48.8445613]}, "properties": {"level": 0.0, "kind": "yes", "name": "", "entrance": true}}, {"type": "Feature", "geometry": {"type": "Point", "coordinates": [2.3731593, 48.8447855]}, "properties": {"level": 1.0, "kind": "yes", "name": "", "entrance": true}}, {"type": "Feature", "geometry": {"type": "Point", "coordinates": [2.3734283, 48.8448643]}, "properties": {"level": 1.0, "kind": "yes", "name": "", "entrance": true}}, {"type": "Feature", "geometry": {"type": "Point", "coordinates": [2.3733532, 48.8448047]}, "properties": {"level": 1.0, "kind": "yes", "name": "", "entrance": true}}, {"type": "Feature", "geometry": {"type": "Point", "coordinates": [2.3713163, 48.8435321]}, "properties": {"level": 0.0, "kind": "main", "name": "", "entrance": true}}, {"type": "Feature", "geometry": {"type": "Point", "coordinates": [2.3749782, 48.8432384]}, "properties": {"level": 0.0, "kind": "main", "name": "Rue de Bercy", "entrance": true}}, {"type": "Feature", "geometry": {"type": "Point", "coordinates": [2.3757193, 48.8447681]}, "properties": {"level": 1.0, "kind": "yes", "name": "", "entrance": true}}, {"type": "Feature", "geometry": {"type": "Point", "coordinates": [2.3765906, 48.8447008]}, "properties": {"level": 1.0, "kind": "main", "name": "Place Henri Frenay", "entrance": true}}, {"type": "Feature", "geometry": {"type": "Point", "coordinates": [2.3763239, 48.8447474]}, "properties": {"level": -1.0, "kind": "yes", "name": "", "entrance": true}}, {"type": "Feature", "geometry": {"type": "Point", "coordinates": [2.3761304, 48.8445125]}, "properties": {"level": 0.0, "kind": "yes", "name": "", "entrance": true}}, {"type": "Feature", "geometry": {"type": "Point", "coordinates": [2.3731567, 48.8445616]}, "properties": {"level": 0.0, "kind": "main", "name": "", "entrance": true}}, {"type": "Feature", "geometry": {"type": "Point", "coordinates": [2.373468, 48.8446817]}, "properties": {"level": 0.0, "kind": "main", "name": "", "entrance": true}}, {"type": "Feature", "geometry": {"type": "Point", "coordinates": [2.3734533, 48.8447944]}, "properties": {"level": 0.0, "kind": "main", "name": "", "entrance": true}}, {"type": "Feature", "geometry": {"type": "Point", "coordinates": [2.3733223, 48.8444809]}, "properties": {"level": 0.0, "kind": "main", "name": "", "entrance": true}}, {"type": "Feature", "geometry": {"type": "Point", "coordinates": [2.3732576, 48.8446415]}, "properties": {"level": 0.0, "kind": "main", "name": "", "entrance": true}}, {"type": "Feature", "geometry": {"type": "Point", "coordinates": [2.3735183, 48.8447213]}, "properties": {"level": 0.0, "kind": "main", "name": "", "entrance": true}}, {"type": "Feature", "geometry": {"type": "Point", "coordinates": [2.3735667, 48.8448848]}, "properties": {"level": 0.0, "kind": "main", "name": "", "entrance": true}}, {"type": "Feature", "geometry": {"type": "Point", "coordinates": [2.3738774, 48.8450329]}, "properties": {"level": 0.0, "kind": "main", "name": "", "entrance": true}}, {"type": "Feature", "geometry": {"type": "Point", "coordinates": [2.3735914, 48.8447795]}, "properties": {"level": 0.0, "kind": "main", "name": "", "entrance": true}}, {"type": "Feature", "geometry": {"type": "Point", "coordinates": [2.3736337, 48.8448126]}, "properties": {"level": 0.0, "kind": "main", "name": "", "entrance": true}}, {"type": "Feature", "geometry": {"type": "Point", "coordinates": [2.3737455, 48.8449017]}, "properties": {"level": 0.0, "kind": "main", "name": "", "entrance": true}}, {"type": "Feature", "geometry": {"type": "Point", "coordinates": [2.3737366, 48.8450158]}, "properties": {"level": 0.0, "kind": "main", "name": "", "entrance": true}}, {"type": "Feature", "geometry": {"type": "Point", "coordinates": [2.3768467, 48.8445123]}, "properties": {"level": 0.0, "kind": "main", "name": "", "entrance": true}}, {"type": "Feature", "geometry": {"type": "Point", "coordinates": [2.3766009, 48.8445579]}, "properties": {"level": 0.0, "kind": "main", "name": "", "entrance": true}}, {"type": "Feature", "geometry": {"type": "Point", "coordinates": [2.3771456, 48.8443171]}, "properties": {"level": 0.0, "kind": "main", "name": "", "entrance": true}}, {"type": "Feature", "geometry": {"type": "Point", "coordinates": [2.3764409, 48.8446442]}, "properties": {"level": 0.0, "kind": "main", "name": "", "entrance": true}}, {"type": "Feature", "geometry": {"type": "Point", "coordinates": [2.3767994, 48.8445198]}, "properties": {"level": -1.0, "kind": "yes", "name": "", "entrance": true}}, {"type": "Feature", "geometry": {"type": "Point", "coordinates": [2.3730712, 48.8442881]}, "properties": {"level": 0.0, "kind": "main", "name": "Gare de Lyon - Rue de Bercy", "entrance": true}}, {"type": "Feature", "geometry": {"type": "Point", "coordinates": [2.3763461, 48.8448334]}, "properties": {"level": 0.0, "kind": "main", "name": "", "entrance": true}}, {"type": "Feature", "geometry": {"type": "Point", "coordinates": [2.3762324, 48.8448969]}, "properties": {"level": 0.0, "kind": "main", "name": "", "entrance": true}}, {"type": "Feature", "geometry": {"type": "Point", "coordinates": [2.3731896, 48.8442992]}, "properties": {"level": 0.0, "kind": "yes", "name": "", "entrance": true}}, {"type": "Feature", "geometry": {"type": "Point", "coordinates": [2.3733961, 48.8448803]}, "properties": {"level": 2.0, "kind": "main", "name": "", "entrance": true}}, {"type": "Feature", "geometry": {"type": "Point", "coordinates": [2.3721536, 48.8444514]}, "properties": {"level": -2.0, "kind": "main", "name": "Rue Van Gogh", "entrance": true}}, {"type": "Feature", "geometry": {"type": "Point", "coordinates": [2.3731309, 48.8446698]}, "properties": {"level": 1.0, "kind": "yes", "name": "", "entrance": true}}, {"type": "Feature", "geometry": {"type": "Point", "coordinates": [2.3765509, 48.8445483]}, "properties": {"level": 1.0, "kind": "yes", "name": "", "entrance": true}}, {"type": "Feature", "geometry": {"type": "Point", "coordinates": [2.373312, 48.8446828]}, "properties": {"level": 0.0, "kind": "yes", "name": "", "entrance": true}}, {"type": "Feature", "geometry": {"type": "Point", "coordinates": [2.374191, 48.8452115]}, "properties": {"level": 1.0, "kind": "yes", "name": "", "entrance": true}}, {"type": "Feature", "geometry": {"type": "Point", "coordinates": [2.374267, 48.8450961]}, "properties": {"level": 1.0, "kind": "yes", "name": "", "entrance": true}}, {"type": "Feature", "geometry": {"type": "Point", "coordinates": [2.3754591, 48.8444253]}, "properties": {"level": 1.0, "kind": "yes", "name": "", "entrance": true}}, {"type": "Feature", "geometry": {"type": "Point", "coordinates": [2.3755197, 48.8443703]}, "properties": {"level": 1.0, "kind": "yes", "name": "", "entrance": true}}, {"type": "Feature", "geometry": {"type": "Point", "coordinates": [2.3760671, 48.844844]}, "properties": {"level": 2.0, "kind": "main", "name": "", "entrance": true}}, {"type": "Feature", "geometry": {"type": "Point", "coordinates": [2.3759746, 48.8447658]}, "properties": {"level": 1.0, "kind": "yes", "name": "", "entrance": true}}, {"type": "Feature", "geometry": {"type": "Point", "coordinates": [2.3756878, 48.8444985]}, "properties": {"level": 1.0, "kind": "yes", "name": "", "entrance": true}}, {"type": "Feature", "geometry": {"type": "Point", "coordinates": [2.3749374, 48.8433221]}, "properties": {"level": 0.0, "kind": "yes", "name": "", "entrance": true}}, {"type": "Feature", "geometry": {"type": "Point", "coordinates": [2.3748372, 48.8434478]}, "properties": {"level": 0.0, "kind": "yes", "name": "", "entrance": true}}, {"type": "Feature", "geometry": {"type": "Point", "coordinates": [2.3747855, 48.8434614]}, "properties": {"level": 0.0, "kind": "yes", "name": "", "entrance": true}}, {"type": "Feature", "geometry": {"type": "Point", "coordinates": [2.3764426, 48.8443355]}, "properties": {"level": 0.0, "kind": "yes", "name": "", "entrance": true}}, {"type": "Feature", "geometry": {"type": "Point", "coordinates": [2.376781, 48.8444606]}, "properties": {"level": 1.0, "kind": "yes", "name": "", "entrance": true}}, {"type": "Feature", "geometry": {"type": "Point", "coordinates": [2.3761232, 48.8447507]}, "properties": {"level": 0.0, "kind": "yes", "name": "", "entrance": true}}, {"type": "Feature", "geometry": {"type": "Point", "coordinates": [2.3760998, 48.8447638]}, "properties": {"level": 2.0, "kind": "yes", "name": "", "entrance": true}}, {"type": "Feature", "geometry": {"type": "Point", "coordinates": [2.3757755, 48.8445681]}, "properties": {"level": 1.0, "kind": "yes", "name": "", "entrance": true}}, {"type": "Feature", "geometry": {"type": "Point", "coordinates": [2.3767965, 48.8443039]}, "properties": {"level": -1.0, "kind": "yes", "name": "", "entrance": true}}, {"type": "Feature", "geometry": {"type": "Point", "coordinates": [2.3767598, 48.8442923]}, "properties": {"level": 0.0, "kind": "yes", "name": "", "entrance": true}}, {"type": "Feature", "geometry": {"type": "Point", "coordinates": [2.373354, 48.8442403]}, "properties": {"level": 0.0, "kind": "yes", "name": "", "entrance": true}}, {"type": "Feature", "geometry": {"type": "Point", "coordinates": [2.3745792, 48.8449226]}, "properties": {"level": 1.0, "kind": "exit", "name": "", "entrance": true}}, {"type": "Feature", "geometry": {"type": "Point", "coordinates": [2.3729861, 48.8447524]}, "properties": {"level": 1.0, "kind": "yes", "name": "", "entrance": true}}, {"type": "Feature", "geometry": {"type": "Point", "coordinates": [2.3741512, 48.8436827]}, "properties": {"level": -2.0, "kind": "yes", "name": "", "entrance": true}}, {"type": "Feature", "geometry": {"type": "Point", "coordinates": [2.3750466, 48.843271]}, "properties": {"level": -2.0, "kind": "yes", "name": "", "entrance": true}}, {"type": "Feature", "geometry": {"type": "Point", "coordinates": [2.3741122, 48.8437822]}, "properties": {"level": -2.0, "kind": "yes", "name": "", "entrance": true}}, {"type": "Feature", "geometry": {"type": "Point", "coordinates": [2.3732664, 48.8440383]}, "properties": {"level": -4.0, "kind": "yes", "name": "", "entrance": true}}, {"type": "Feature", "geometry": {"type": "Point", "coordinates": [2.3733602, 48.8442026]}, "properties": {"level": -4.0, "kind": "yes", "name": "", "entrance": true}}, {"type": "Feature", "geometry": {"type": "Point", "coordinates": [2.3762497, 48.8449331]}, "properties": {"level": 0.0, "kind": "main", "name": "", "entrance": true}}, {"type": "Feature", "geometry": {"type": "Point", "coordinates": [2.3760745, 48.8449836]}, "properties": {"level": 0.0, "kind": "main", "name": "", "entrance": true}}, {"type": "Feature", "geometry": {"type": "Point", "coordinates": [2.3720032, 48.844427]}, "properties": {"level": 0.0, "kind": "main", "name": "", "entrance": true}}, {"type": "Feature", "geometry": {"type": "Point", "coordinates": [2.3746163, 48.8450205]}, "properties": {"level": 1.0, "kind": "main", "name": "", "entrance": true}}, {"type": "Feature", "geometry": {"type": "Point", "coordinates": [2.3743526, 48.8451662]}, "properties": {"level": 1.0, "kind": "main", "name": "", "entrance": true}}, {"type": "Feature", "geometry": {"type": "Point", "coordinates": [2.3749311, 48.8448467]}, "properties": {"level": 1.0, "kind": "main", "name": "", "entrance": true}}, {"type": "Feature", "geometry": {"type": "Point", "coordinates": [2.3747211, 48.8449627]}, "properties": {"level": 1.0, "kind": "main", "name": "", "entrance": true}}, {"type": "Feature", "geometry": {"type": "Point", "coordinates": [2.3751603, 48.8445997]}, "properties": {"level": 1.0, "kind": "main", "name": "", "entrance": true}}, {"type": "Feature", "geometry": {"type": "Point", "coordinates": [2.3743705, 48.8450389]}, "properties": {"level": 1.0, "kind": "main", "name": "", "entrance": true}}, {"type": "Feature", "geometry": {"type": "Point", "coordinates": [2.375028, 48.8432562]}, "properties": {"level": 0.0, "kind": "yes", "name": "", "entrance": true}}, {"type": "Feature", "geometry": {"type": "Point", "coordinates": [2.3769131, 48.8445255]}, "properties": {"level": -1.0, "kind": "yes", "name": "", "entrance": true}}, {"type": "Feature", "geometry": {"type": "Point", "coordinates": [2.3760507, 48.8448205]}, "properties": {"level": 2.0, "kind": "main", "name": "", "entrance": true}}, {"type": "Feature", "geometry": {"type": "Point", "coordinates": [2.3746805, 48.844866]}, "properties": {"level": 1.0, "kind": "main", "name": "", "entrance": true}}, {"type": "Feature", "geometry": {"type": "Point", "coordinates": [2.3740696, 48.8437483]}, "properties": {"level": 0.0, "kind": "yes", "name": "Rue de Bercy", "entrance": true}}, {"type": "Feature", "geometry": {"type": "Point", "coordinates": [2.3763371, 48.8449801]}, "properties": {"level": 0.0, "kind": "main", "name": "", "entrance": true}}, {"type": "Feature", "geometry": {"type": "Point", "coordinates": [2.3733751, 48.8447324]}, "properties": {"level": 0.0, "kind": "main", "name": "", "entrance": true}}, {"type": "Feature", "geometry": {"type": "Point", "coordinates": [2.3740037, 48.8453238]}, "properties": {"level": 0.0, "kind": "main", "name": "Cour Chalon", "entrance": true}}, {"type": "Feature", "geometry": {"type": "Point", "coordinates": [2.37018, 48.8474652]}, "properties": {"level": 0.0, "kind": "garage", "name": "", "entrance": true}}, {"type": "Feature", "geometry": {"type": "Point", "coordinates": [2.3735884, 48.8450972]}, "properties": {"level": 1.0, "kind": "yes", "name": "", "entrance": true}}, {"type": "Feature", "geometry": {"type": "Point", "coordinates": [2.370361, 48.8460886]}, "properties": {"level": 0.0, "kind": "garage", "name": "", "entrance": true}}, {"type": "Feature", "geometry": {"type": "Point", "coordinates": [2.3746492, 48.8465608]}, "properties": {"level": 0.0, "kind": "garage", "name": "", "entrance": true}}, {"type": "Feature", "geometry": {"type": "Point", "coordinates": [2.3769304, 48.8468361]}, "properties": {"level": 0.0, "kind": "yes", "name": "", "entrance": true}}]}