{"type": "FeatureCollection", "features": [{"type": "Feature", "geometry": {"type": "Point", "coordinates": [2.37337, 48.8442099]}, "properties": {"kind": "elevator", "levels": "-4.0;-3.0;-2.0", "level_min": -4.0, "level_max": -2.0, "name": ""}}, {"type": "Feature", "geometry": {"type": "Point", "coordinates": [2.3761122, 48.8447567]}, "properties": {"kind": "elevator", "levels": "0.0;1.0;2.0", "level_min": 0.0, "level_max": 2.0, "name": ""}}, {"type": "Feature", "geometry": {"type": "Point", "coordinates": [2.3760948, 48.8445052]}, "properties": {"kind": "elevator", "levels": "0.0;1.0", "level_min": 0.0, "level_max": 1.0, "name": ""}}, {"type": "Feature", "geometry": {"type": "Point", "coordinates": [2.376115, 48.8445211]}, "properties": {"kind": "elevator", "levels": "0.0;1.0", "level_min": 0.0, "level_max": 1.0, "name": ""}}, {"type": "Feature", "geometry": {"type": "Point", "coordinates": [2.3732574, 48.8440311]}, "properties": {"kind": "elevator", "levels": "-4.0;-3.0;-2.0", "level_min": -4.0, "level_max": -2.0, "name": ""}}, {"type": "Feature", "geometry": {"type": "Point", "coordinates": [2.3741242, 48.8437759]}, "properties": {"kind": "elevator", "levels": "-2.0;0.0;1.0", "level_min": -2.0, "level_max": 1.0, "name": ""}}, {"type": "Feature", "geometry": {"type": "Point", "coordinates": [2.3732006, 48.8442933]}, "properties": {"kind": "elevator", "levels": "0.0;1.0", "level_min": 0.0, "level_max": 1.0, "name": ""}}, {"type": "Feature", "geometry": {"type": "Point", "coordinates": [2.3763351, 48.8447413]}, "properties": {"kind": "elevator", "levels": "-1.0;0.0", "level_min": -1.0, "level_max": 0.0, "name": ""}}, {"type": "Feature", "geometry": {"type": "Point", "coordinates": [2.3750372, 48.8432637]}, "properties": {"kind": "elevator", "levels": "-2.0;-1.0;0.0", "level_min": -2.0, "level_max": 0.0, "name": ""}}, {"type": "Feature", "geometry": {"type": "Point", "coordinates": [2.3743497, 48.8449527]}, "properties": {"kind": "elevator", "levels": "1.0;2.0", "level_min": 1.0, "level_max": 2.0, "name": ""}}, {"type": "Feature", "geometry": {"type": "Point", "coordinates": [2.3762527, 48.8449631]}, "properties": {"kind": "elevator", "levels": "-6.0;-5.0;-4.0;-3.0;-2.0;-1.0;0.0", "level_min": -6.0, "level_max": 0.0, "name": ""}}, {"type": "Feature", "geometry": {"type": "Point", "coordinates": [2.3769249, 48.8445191]}, "properties": {"kind": "elevator", "levels": "-1.0;0.0", "level_min": -1.0, "level_max": 0.0, "name": ""}}, {"type": "Feature", "geometry": {"type": "Point", "coordinates": [2.37198785, 48.8445215]}, "properties": {"kind": "escalator", "levels": "-2.0;0.0", "level_min": -2.0, "level_max": 0.0, "name": ""}}, {"type": "Feature", "geometry": {"type": "Point", "coordinates": [2.37176765, 48.8447545]}, "properties": {"kind": "stairs", "levels": "-2.0;0.0", "level_min": -2.0, "level_max": 0.0, "name": ""}}, {"type": "Feature", "geometry": {"type": "Point", "coordinates": [2.37535325, 48.84416445]}, "properties": {"kind": "stairs", "levels": "0.0;1.0", "level_min": 0.0, "level_max": 1.0, "name": ""}}, {"type": "Feature", "geometry": {"type": "Point", "coordinates": [2.37384905, 48.8448887]}, "properties": {"kind": "escalator", "levels": "0.0;1.0", "level_min": 0.0, "level_max": 1.0, "name": ""}}, {"type": "Feature", "geometry": {"type": "Point", "coordinates": [2.37507295, 48.84393805]}, "properties": {"kind": "stairs", "levels": "0.0;1.0", "level_min": 0.0, "level_max": 1.0, "name": ""}}, {"type": "Feature", "geometry": {"type": "Point", "coordinates": [2.3746643, 48.84363825]}, "properties": {"kind": "stairs", "levels": "0.0;1.0", "level_min": 0.0, "level_max": 1.0, "name": ""}}, {"type": "Feature", "geometry": {"type": "Point", "coordinates": [2.37622015, 48.8436858]}, "properties": {"kind": "escalator", "levels": "0.0;1.0", "level_min": 0.0, "level_max": 1.0, "name": ""}}, {"type": "Feature", "geometry": {"type": "Point", "coordinates": [2.37498385, 48.843601]}, "properties": {"kind": "stairs", "levels": "-0.5;0.0", "level_min": -0.5, "level_max": 0.0, "name": ""}}, {"type": "Feature", "geometry": {"type": "Point", "coordinates": [2.3752476, 48.84354315]}, "properties": {"kind": "stairs", "levels": "0.0;1.0", "level_min": 0.0, "level_max": 1.0, "name": ""}}, {"type": "Feature", "geometry": {"type": "Point", "coordinates": [2.37521305, 48.844054150000005]}, "properties": {"kind": "stairs", "levels": "0.0;1.0", "level_min": 0.0, "level_max": 1.0, "name": ""}}, {"type": "Feature", "geometry": {"type": "Point", "coordinates": [2.3734616, 48.84458455]}, "properties": {"kind": "escalator", "levels": "0.0;1.0", "level_min": 0.0, "level_max": 1.0, "name": ""}}, {"type": "Feature", "geometry": {"type": "Point", "coordinates": [2.37608915, 48.84357085]}, "properties": {"kind": "escalator", "levels": "0.0;1.0", "level_min": 0.0, "level_max": 1.0, "name": ""}}, {"type": "Feature", "geometry": {"type": "Point", "coordinates": [2.3748511, 48.843762]}, "properties": {"kind": "stairs", "levels": "0.0;1.0", "level_min": 0.0, "level_max": 1.0, "name": ""}}, {"type": "Feature", "geometry": {"type": "Point", "coordinates": [2.37496675, 48.843853800000005]}, "properties": {"kind": "stairs", "levels": "0.0;1.0", "level_min": 0.0, "level_max": 1.0, "name": ""}}, {"type": "Feature", "geometry": {"type": "Point", "coordinates": [2.37506735, 48.843629050000004]}, "properties": {"kind": "escalator", "levels": "-2.0;-1.0;0.0", "level_min": -2.0, "level_max": 0.0, "name": ""}}, {"type": "Feature", "geometry": {"type": "Point", "coordinates": [2.3742856999999997, 48.84338405]}, "properties": {"kind": "stairs", "levels": "-2.0;-1.0;0.0", "level_min": -2.0, "level_max": 0.0, "name": ""}}, {"type": "Feature", "geometry": {"type": "Point", "coordinates": [2.3753887000000002, 48.8427727]}, "properties": {"kind": "stairs", "levels": "-2.0;0.0", "level_min": -2.0, "level_max": 0.0, "name": ""}}, {"type": "Feature", "geometry": {"type": "Point", "coordinates": [2.37463505, 48.8428986]}, "properties": {"kind": "stairs", "levels": "-2.0;0.0", "level_min": -2.0, "level_max": 0.0, "name": ""}}, {"type": "Feature", "geometry": {"type": "Point", "coordinates": [2.37430005, 48.84339610000001]}, "properties": {"kind": "escalator", "levels": "-2.0;-1.0;0.0", "level_min": -2.0, "level_max": 0.0, "name": ""}}, {"type": "Feature", "geometry": {"type": "Point", "coordinates": [2.373897, 48.84492635]}, "properties": {"kind": "escalator", "levels": "0.0;1.0", "level_min": 0.0, "level_max": 1.0, "name": ""}}, {"type": "Feature", "geometry": {"type": "Point", "coordinates": [2.3734262, 48.84455755]}, "properties": {"kind": "escalator", "levels": "0.0;1.0", "level_min": 0.0, "level_max": 1.0, "name": ""}}, {"type": "Feature", "geometry": {"type": "Point", "coordinates": [2.3761497, 48.84479035]}, "properties": {"kind": "escalator", "levels": "1.0;2.0", "level_min": 1.0, "level_max": 2.0, "name": ""}}, {"type": "Feature", "geometry": {"type": "Point", "coordinates": [2.3764567, 48.84466375]}, "properties": {"kind": "stairs", "levels": "1.0;2.0", "level_min": 1.0, "level_max": 2.0, "name": ""}}, {"type": "Feature", "geometry": {"type": "Point", "coordinates": [2.373335275, 48.84479095]}, "properties": {"kind": "stairs", "levels": "1.0;2.0", "level_min": 1.0, "level_max": 2.0, "name": ""}}, {"type": "Feature", "geometry": {"type": "Point", "coordinates": [2.373519225, 48.844936725]}, "properties": {"kind": "stairs", "levels": "1.0;2.0", "level_min": 1.0, "level_max": 2.0, "name": ""}}, {"type": "Feature", "geometry": {"type": "Point", "coordinates": [2.37509935, 48.843398199999996]}, "properties": {"kind": "stairs", "levels": "0.0;1.0", "level_min": 0.0, "level_max": 1.0, "name": ""}}, {"type": "Feature", "geometry": {"type": "Point", "coordinates": [2.3759490000000003, 48.84346075]}, "properties": {"kind": "escalator", "levels": "0.0;1.0", "level_min": 0.0, "level_max": 1.0, "name": ""}}, {"type": "Feature", "geometry": {"type": "Point", "coordinates": [2.3753643, 48.843635]}, "properties": {"kind": "stairs", "levels": "0.0;1.0", "level_min": 0.0, "level_max": 1.0, "name": ""}}, {"type": "Feature", "geometry": {"type": "Point", "coordinates": [2.3760593500000002, 48.844482400000004]}, "properties": {"kind": "escalator", "levels": "0.0;1.0", "level_min": 0.0, "level_max": 1.0, "name": ""}}, {"type": "Feature", "geometry": {"type": "Point", "coordinates": [2.3760928666666667, 48.8447582]}, "properties": {"kind": "stairs", "levels": "0.0;1.0", "level_min": 0.0, "level_max": 1.0, "name": ""}}, {"type": "Feature", "geometry": {"type": "Point", "coordinates": [2.3734221499999997, 48.84458325]}, "properties": {"kind": "stairs", "levels": "0.0;0.5", "level_min": 0.0, "level_max": 0.5, "name": ""}}, {"type": "Feature", "geometry": {"type": "Point", "coordinates": [2.3734782, 48.844552]}, "properties": {"kind": "stairs", "levels": "0.5;1.0", "level_min": 0.5, "level_max": 1.0, "name": ""}}, {"type": "Feature", "geometry": {"type": "Point", "coordinates": [2.37327295, 48.844336999999996]}, "properties": {"kind": "stairs", "levels": "0.5;1.0", "level_min": 0.5, "level_max": 1.0, "name": ""}}, {"type": "Feature", "geometry": {"type": "Point", "coordinates": [2.3733353, 48.84430275]}, "properties": {"kind": "stairs", "levels": "0.0;0.5", "level_min": 0.0, "level_max": 0.5, "name": ""}}, {"type": "Feature", "geometry": {"type": "Point", "coordinates": [2.3733419, 48.8443245]}, "properties": {"kind": "escalator", "levels": "0.0;1.0", "level_min": 0.0, "level_max": 1.0, "name": ""}}, {"type": "Feature", "geometry": {"type": "Point", "coordinates": [2.3750308, 48.84364935]}, "properties": {"kind": "escalator", "levels": "-2.0;-1.0;0.0", "level_min": -2.0, "level_max": 0.0, "name": ""}}, {"type": "Feature", "geometry": {"type": "Point", "coordinates": [2.3750482, 48.8436397]}, "properties": {"kind": "escalator", "levels": "-2.0;-1.0;0.0", "level_min": -2.0, "level_max": 0.0, "name": ""}}, {"type": "Feature", "geometry": {"type": "Point", "coordinates": [2.3757659999999996, 48.84423625]}, "properties": {"kind": "escalator", "levels": "0.0;1.0", "level_min": 0.0, "level_max": 1.0, "name": ""}}, {"type": "Feature", "geometry": {"type": "Point", "coordinates": [2.37586445, 48.8443141]}, "properties": {"kind": "escalator", "levels": "0.0;1.0", "level_min": 0.0, "level_max": 1.0, "name": ""}}, {"type": "Feature", "geometry": {"type": "Point", "coordinates": [2.3761017, 48.84450373333333]}, "properties": {"kind": "elevator", "levels": "0.0;1.0", "level_min": 0.0, "level_max": 1.0, "name": ""}}, {"type": "Feature", "geometry": {"type": "Point", "coordinates": [2.37606525, 48.844782]}, "properties": {"kind": "escalator", "levels": "0.0;1.0", "level_min": 0.0, "level_max": 1.0, "name": ""}}, {"type": "Feature", "geometry": {"type": "Point", "coordinates": [2.37391355, 48.8448943]}, "properties": {"kind": "stairs", "levels": "0.5;1.0", "level_min": 0.5, "level_max": 1.0, "name": ""}}, {"type": "Feature", "geometry": {"type": "Point", "coordinates": [2.3738573499999998, 48.8449252]}, "properties": {"kind": "stairs", "levels": "0.0;0.5", "level_min": 0.0, "level_max": 0.5, "name": ""}}, {"type": "Feature", "geometry": {"type": "Point", "coordinates": [2.3757989, 48.84354195]}, "properties": {"kind": "escalator", "levels": "0.0;1.0", "level_min": 0.0, "level_max": 1.0, "name": ""}}, {"type": "Feature", "geometry": {"type": "Point", "coordinates": [2.37606145, 48.84377325]}, "properties": {"kind": "escalator", "levels": "0.0;1.0", "level_min": 0.0, "level_max": 1.0, "name": ""}}, {"type": "Feature", "geometry": {"type": "Point", "coordinates": [2.3759229, 48.84366285]}, "properties": {"kind": "escalator", "levels": "0.0;1.0", "level_min": 0.0, "level_max": 1.0, "name": ""}}, {"type": "Feature", "geometry": {"type": "Point", "coordinates": [2.3758539499999998, 48.844763]}, "properties": {"kind": "stairs", "levels": "1.0;2.0", "level_min": 1.0, "level_max": 2.0, "name": ""}}, {"type": "Feature", "geometry": {"type": "Point", "coordinates": [2.37646115, 48.8447529]}, "properties": {"kind": "escalator", "levels": "0.0;1.0", "level_min": 0.0, "level_max": 1.0, "name": ""}}, {"type": "Feature", "geometry": {"type": "Point", "coordinates": [2.376493, 48.84478215]}, "properties": {"kind": "stairs", "levels": "0.0;1.0", "level_min": 0.0, "level_max": 1.0, "name": ""}}, {"type": "Feature", "geometry": {"type": "Point", "coordinates": [2.3731963875, 48.8442926875]}, "properties": {"kind": "elevator", "levels": "0.0;1.0", "level_min": 0.0, "level_max": 1.0, "name": ""}}, {"type": "Feature", "geometry": {"type": "Point", "coordinates": [2.376329483333333, 48.84474178333334]}, "properties": {"kind": "elevator", "levels": "-1.0;0.0", "level_min": -1.0, "level_max": 0.0, "name": ""}}, {"type": "Feature", "geometry": {"type": "Point", "coordinates": [2.37501225, 48.843659599999995]}, "properties": {"kind": "escalator", "levels": "-2.0;-1.0;0.0", "level_min": -2.0, "level_max": 0.0, "name": ""}}, {"type": "Feature", "geometry": {"type": "Point", "coordinates": [2.37553485, 48.8436838]}, "properties": {"kind": "stairs", "levels": "0.0;1.0", "level_min": 0.0, "level_max": 1.0, "name": ""}}, {"type": "Feature", "geometry": {"type": "Point", "coordinates": [2.37490375, 48.84364535]}, "properties": {"kind": "stairs", "levels": "-1.5;-1.0", "level_min": -1.5, "level_max": -1.0, "name": ""}}, {"type": "Feature", "geometry": {"type": "Point", "coordinates": [2.3750777000000003, 48.84356475]}, "properties": {"kind": "stairs", "levels": "-1.5;-1.0", "level_min": -1.5, "level_max": -1.0, "name": ""}}, {"type": "Feature", "geometry": {"type": "Point", "coordinates": [2.3749384, 48.84356565]}, "properties": {"kind": "stairs", "levels": "-1.0;-0.5", "level_min": -1.0, "level_max": -0.5, "name": ""}}, {"type": "Feature", "geometry": {"type": "Point", "coordinates": [2.37505275, 48.8435824]}, "properties": {"kind": "stairs", "levels": "-2.0;-1.5", "level_min": -2.0, "level_max": -1.5, "name": ""}}, {"type": "Feature", "geometry": {"type": "Point", "coordinates": [2.3749437, 48.84364265]}, "properties": {"kind": "stairs", "levels": "-2.0;-1.5", "level_min": -2.0, "level_max": -1.5, "name": ""}}, {"type": "Feature", "geometry": {"type": "Point", "coordinates": [2.3746446, 48.842915000000005]}, "properties": {"kind": "escalator", "levels": "-2.0;0.0", "level_min": -2.0, "level_max": 0.0, "name": ""}}, {"type": "Feature", "geometry": {"type": "Point", "coordinates": [2.3733357, 48.8433488]}, "properties": {"kind": "stairs", "levels": "-2.0;0.0", "level_min": -2.0, "level_max": 0.0, "name": ""}}, {"type": "Feature", "geometry": {"type": "Point", "coordinates": [2.3734125500000003, 48.84454675]}, "properties": {"kind": "escalator", "levels": "0.0;1.0", "level_min": 0.0, "level_max": 1.0, "name": ""}}, {"type": "Feature", "geometry": {"type": "Point", "coordinates": [2.373475, 48.8445952]}, "properties": {"kind": "escalator", "levels": "0.0;1.0", "level_min": 0.0, "level_max": 1.0, "name": ""}}, {"type": "Feature", "geometry": {"type": "Point", "coordinates": [2.3761110857142858, 48.84475918571429]}, "properties": {"kind": "elevator", "levels": "0.0;1.0;2.0", "level_min": 0.0, "level_max": 2.0, "name": ""}}, {"type": "Feature", "geometry": {"type": "Point", "coordinates": [2.3761345, 48.8447782]}, "properties": {"kind": "escalator", "levels": "1.0;2.0", "level_min": 1.0, "level_max": 2.0, "name": ""}}, {"type": "Feature", "geometry": {"type": "Point", "coordinates": [2.37275145, 48.844302549999995]}, "properties": {"kind": "stairs", "levels": "-3.0;-2.0", "level_min": -3.0, "level_max": -2.0, "name": ""}}, {"type": "Feature", "geometry": {"type": "Point", "coordinates": [2.3730339000000003, 48.84413405]}, "properties": {"kind": "escalator", "levels": "-3.0;-2.0", "level_min": -3.0, "level_max": -2.0, "name": ""}}, {"type": "Feature", "geometry": {"type": "Point", "coordinates": [2.37531715, 48.84310335]}, "properties": {"kind": "escalator", "levels": "-3.0;-2.0", "level_min": -3.0, "level_max": -2.0, "name": ""}}, {"type": "Feature", "geometry": {"type": "Point", "coordinates": [2.37360425, 48.84405675]}, "properties": {"kind": "escalator", "levels": "-3.0;-2.0", "level_min": -3.0, "level_max": -2.0, "name": ""}}, {"type": "Feature", "geometry": {"type": "Point", "coordinates": [2.3732318, 48.84428765]}, "properties": {"kind": "escalator", "levels": "-3.0;-2.0", "level_min": -3.0, "level_max": -2.0, "name": ""}}, {"type": "Feature", "geometry": {"type": "Point", "coordinates": [2.3734252, 48.84391465]}, "properties": {"kind": "escalator", "levels": "-3.0;-2.0", "level_min": -3.0, "level_max": -2.0, "name": ""}}, {"type": "Feature", "geometry": {"type": "Point", "coordinates": [2.37569665, 48.8429042]}, "properties": {"kind": "stairs", "levels": "-3.0;-2.0", "level_min": -3.0, "level_max": -2.0, "name": ""}}, {"type": "Feature", "geometry": {"type": "Point", "coordinates": [2.3755183, 48.84276485]}, "properties": {"kind": "stairs", "levels": "-3.0;-2.0", "level_min": -3.0, "level_max": -2.0, "name": ""}}, {"type": "Feature", "geometry": {"type": "Point", "coordinates": [2.3734425000000003, 48.8439281]}, "properties": {"kind": "escalator", "levels": "-3.0;-2.0", "level_min": -3.0, "level_max": -2.0, "name": ""}}, {"type": "Feature", "geometry": {"type": "Point", "coordinates": [2.37536025, 48.8428623]}, "properties": {"kind": "escalator", "levels": "-3.0;-2.0", "level_min": -3.0, "level_max": -2.0, "name": ""}}, {"type": "Feature", "geometry": {"type": "Point", "coordinates": [2.37305075, 48.844146949999995]}, "properties": {"kind": "escalator", "levels": "-3.0;-2.0", "level_min": -3.0, "level_max": -2.0, "name": ""}}, {"type": "Feature", "geometry": {"type": "Point", "coordinates": [2.3755256, 48.84298625]}, "properties": {"kind": "escalator", "levels": "-3.0;-2.0", "level_min": -3.0, "level_max": -2.0, "name": ""}}, {"type": "Feature", "geometry": {"type": "Point", "coordinates": [2.3755398999999997, 48.843002049999996]}, "properties": {"kind": "stairs", "levels": "-3.0;-2.0", "level_min": -3.0, "level_max": -2.0, "name": ""}}, {"type": "Feature", "geometry": {"type": "Point", "coordinates": [2.37321385, 48.84427365]}, "properties": {"kind": "escalator", "levels": "-3.0;-2.0", "level_min": -3.0, "level_max": -2.0, "name": ""}}, {"type": "Feature", "geometry": {"type": "Point", "coordinates": [2.3735669, 48.84384815]}, "properties": {"kind": "stairs", "levels": "-3.0;-2.0", "level_min": -3.0, "level_max": -2.0, "name": ""}}, {"type": "Feature", "geometry": {"type": "Point", "coordinates": [2.3753438, 48.84284835]}, "properties": {"kind": "stairs", "levels": "-3.0;-2.0", "level_min": -3.0, "level_max": -2.0, "name": ""}}, {"type": "Feature", "geometry": {"type": "Point", "coordinates": [2.37513385, 48.842964800000004]}, "properties": {"kind": "escalator", "levels": "-3.0;-2.0", "level_min": -3.0, "level_max": -2.0, "name": ""}}, {"type": "Feature", "geometry": {"type": "Point", "coordinates": [2.37533465, 48.843116699999996]}, "properties": {"kind": "escalator", "levels": "-3.0;-2.0", "level_min": -3.0, "level_max": -2.0, "name": ""}}, {"type": "Feature", "geometry": {"type": "Point", "coordinates": [2.3736218, 48.8440707]}, "properties": {"kind": "escalator", "levels": "-3.0;-2.0", "level_min": -3.0, "level_max": -2.0, "name": ""}}, {"type": "Feature", "geometry": {"type": "Point", "coordinates": [2.37340755, 48.8441674]}, "properties": {"kind": "stairs", "levels": "-3.0;-2.0", "level_min": -3.0, "level_max": -2.0, "name": ""}}, {"type": "Feature", "geometry": {"type": "Point", "coordinates": [2.3751515999999997, 48.842978349999996]}, "properties": {"kind": "escalator", "levels": "-3.0;-2.0", "level_min": -3.0, "level_max": -2.0, "name": ""}}, {"type": "Feature", "geometry": {"type": "Point", "coordinates": [2.37375095, 48.843986799999996]}, "properties": {"kind": "stairs", "levels": "-3.0;-2.0", "level_min": -3.0, "level_max": -2.0, "name": ""}}, {"type": "Feature", "geometry": {"type": "Point", "coordinates": [2.3719983, 48.844540550000005]}, "properties": {"kind": "stairs", "levels": "-2.0;0.0", "level_min": -2.0, "level_max": 0.0, "name": ""}}, {"type": "Feature", "geometry": {"type": "Point", "coordinates": [2.3717506999999998, 48.84474255]}, "properties": {"kind": "escalator", "levels": "-2.0;0.0", "level_min": -2.0, "level_max": 0.0, "name": ""}}, {"type": "Feature", "geometry": {"type": "Point", "coordinates": [2.37315325, 48.843828599999995]}, "properties": {"kind": "stairs", "levels": "-3.0;-2.0", "level_min": -3.0, "level_max": -2.0, "name": ""}}, {"type": "Feature", "geometry": {"type": "Point", "coordinates": [2.3735067499999998, 48.844264949999996]}, "properties": {"kind": "stairs", "levels": "-2.0;-1.0;0.0", "level_min": -2.0, "level_max": 0.0, "name": ""}}, {"type": "Feature", "geometry": {"type": "Point", "coordinates": [2.3726770999999998, 48.844353749999996]}, "properties": {"kind": "escalator", "levels": "-4.0;-3.0;-2.0", "level_min": -4.0, "level_max": -2.0, "name": ""}}, {"type": "Feature", "geometry": {"type": "Point", "coordinates": [2.3736825, 48.844185249999995]}, "properties": {"kind": "escalator", "levels": "-2.0;-1.0;0.0", "level_min": -2.0, "level_max": 0.0, "name": ""}}, {"type": "Feature", "geometry": {"type": "Point", "coordinates": [2.3724979, 48.8444296]}, "properties": {"kind": "escalator", "levels": "-4.0;-3.0;-2.0", "level_min": -4.0, "level_max": -2.0, "name": ""}}, {"type": "Feature", "geometry": {"type": "Point", "coordinates": [2.3736703, 48.84417245]}, "properties": {"kind": "stairs", "levels": "-2.0;-1.0;0.0", "level_min": -2.0, "level_max": 0.0, "name": ""}}, {"type": "Feature", "geometry": {"type": "Point", "coordinates": [2.3726601, 48.84434075]}, "properties": {"kind": "escalator", "levels": "-4.0;-3.0;-2.0", "level_min": -4.0, "level_max": -2.0, "name": ""}}, {"type": "Feature", "geometry": {"type": "Point", "coordinates": [2.3735192, 48.84427530000001]}, "properties": {"kind": "escalator", "levels": "-2.0;-1.0;0.0", "level_min": -2.0, "level_max": 0.0, "name": ""}}, {"type": "Feature", "geometry": {"type": "Point", "coordinates": [2.3725198, 48.84443925]}, "properties": {"kind": "stairs", "levels": "-4.0;-3.0;-2.0", "level_min": -4.0, "level_max": -2.0, "name": ""}}, {"type": "Feature", "geometry": {"type": "Point", "coordinates": [2.3726939, 48.8445844]}, "properties": {"kind": "escalator", "levels": "-4.0;-3.0;-2.0", "level_min": -4.0, "level_max": -2.0, "name": ""}}, {"type": "Feature", "geometry": {"type": "Point", "coordinates": [2.3728572999999997, 48.8444939]}, "properties": {"kind": "escalator", "levels": "-4.0;-3.0;-2.0", "level_min": -4.0, "level_max": -2.0, "name": ""}}, {"type": "Feature", "geometry": {"type": "Point", "coordinates": [2.3726779000000002, 48.8445702]}, "properties": {"kind": "escalator", "levels": "-4.0;-3.0;-2.0", "level_min": -4.0, "level_max": -2.0, "name": ""}}, {"type": "Feature", "geometry": {"type": "Point", "coordinates": [2.3728403499999997, 48.84448075]}, "properties": {"kind": "escalator", "levels": "-4.0;-3.0;-2.0", "level_min": -4.0, "level_max": -2.0, "name": ""}}, {"type": "Feature", "geometry": {"type": "Point", "coordinates": [2.376816975, 48.84429125]}, "properties": {"kind": "stairs", "levels": "-1.0;0.0", "level_min": -1.0, "level_max": 0.0, "name": ""}}, {"type": "Feature", "geometry": {"type": "Point", "coordinates": [2.3738628, 48.844899600000005]}, "properties": {"kind": "escalator", "levels": "0.0;1.0", "level_min": 0.0, "level_max": 1.0, "name": ""}}, {"type": "Feature", "geometry": {"type": "Point", "coordinates": [2.3739108499999997, 48.8449373]}, "properties": {"kind": "escalator", "levels": "0.0;1.0", "level_min": 0.0, "level_max": 1.0, "name": ""}}, {"type": "Feature", "geometry": {"type": "Point", "coordinates": [2.373805, 48.84533365]}, "properties": {"kind": "stairs", "levels": "-2.0;-1.0;0.0", "level_min": -2.0, "level_max": 0.0, "name": ""}}, {"type": "Feature", "geometry": {"type": "Point", "coordinates": [2.3765319, 48.844636550000004]}, "properties": {"kind": "escalator", "levels": "-1.0;0.0", "level_min": -1.0, "level_max": 0.0, "name": ""}}, {"type": "Feature", "geometry": {"type": "Point", "coordinates": [2.3765878, 48.84463435]}, "properties": {"kind": "escalator", "levels": "-1.0;0.0", "level_min": -1.0, "level_max": 0.0, "name": ""}}, {"type": "Feature", "geometry": {"type": "Point", "coordinates": [2.3764072499999997, 48.8447327]}, "properties": {"kind": "stairs", "levels": "-1.0;0.0", "level_min": -1.0, "level_max": 0.0, "name": ""}}, {"type": "Feature", "geometry": {"type": "Point", "coordinates": [2.37672165, 48.8445323]}, "properties": {"kind": "stairs", "levels": "-1.0;0.0", "level_min": -1.0, "level_max": 0.0, "name": ""}}, {"type": "Feature", "geometry": {"type": "Point", "coordinates": [2.37392725, 48.8438915]}, "properties": {"kind": "escalator", "levels": "-4.0;-3.0", "level_min": -4.0, "level_max": -3.0, "name": ""}}, {"type": "Feature", "geometry": {"type": "Point", "coordinates": [2.3748581, 48.84313684999999]}, "properties": {"kind": "escalator", "levels": "-4.0;-3.0", "level_min": -4.0, "level_max": -3.0, "name": ""}}, {"type": "Feature", "geometry": {"type": "Point", "coordinates": [2.37374535, 48.84374625]}, "properties": {"kind": "escalator", "levels": "-4.0;-3.0", "level_min": -4.0, "level_max": -3.0, "name": ""}}, {"type": "Feature", "geometry": {"type": "Point", "coordinates": [2.3739108, 48.8438785]}, "properties": {"kind": "stairs", "levels": "-4.0;-3.0", "level_min": -4.0, "level_max": -3.0, "name": ""}}, {"type": "Feature", "geometry": {"type": "Point", "coordinates": [2.3748267, 48.8433891]}, "properties": {"kind": "escalator", "levels": "-4.0;-3.0", "level_min": -4.0, "level_max": -3.0, "name": ""}}, {"type": "Feature", "geometry": {"type": "Point", "coordinates": [2.37500185, 48.8432796]}, "properties": {"kind": "escalator", "levels": "-4.0;-3.0", "level_min": -4.0, "level_max": -3.0, "name": ""}}, {"type": "Feature", "geometry": {"type": "Point", "coordinates": [2.37376085, 48.843758550000004]}, "properties": {"kind": "stairs", "levels": "-4.0;-3.0", "level_min": -4.0, "level_max": -3.0, "name": ""}}, {"type": "Feature", "geometry": {"type": "Point", "coordinates": [2.37467425, 48.8432285]}, "properties": {"kind": "escalator", "levels": "-4.0;-3.0", "level_min": -4.0, "level_max": -3.0, "name": ""}}, {"type": "Feature", "geometry": {"type": "Point", "coordinates": [2.3746899, 48.84324075]}, "properties": {"kind": "stairs", "levels": "-4.0;-3.0", "level_min": -4.0, "level_max": -3.0, "name": ""}}, {"type": "Feature", "geometry": {"type": "Point", "coordinates": [2.3748099, 48.8433763]}, "properties": {"kind": "stairs", "levels": "-4.0;-3.0", "level_min": -4.0, "level_max": -3.0, "name": ""}}, {"type": "Feature", "geometry": {"type": "Point", "coordinates": [2.37420445, 48.84532135]}, "properties": {"kind": "escalator", "levels": "0.0;1.0", "level_min": 0.0, "level_max": 1.0, "name": ""}}, {"type": "Feature", "geometry": {"type": "Point", "coordinates": [2.37347235, 48.843858049999994]}, "properties": {"kind": "escalator", "levels": "-2.0;-1.0;0.0", "level_min": -2.0, "level_max": 0.0, "name": ""}}, {"type": "Feature", "geometry": {"type": "Point", "coordinates": [2.3730962, 48.844107]}, "properties": {"kind": "stairs", "levels": "0.0;1.0", "level_min": 0.0, "level_max": 1.0, "name": ""}}, {"type": "Feature", "geometry": {"type": "Point", "coordinates": [2.37444365, 48.8433835]}, "properties": {"kind": "escalator", "levels": "0.0;1.0", "level_min": 0.0, "level_max": 1.0, "name": ""}}, {"type": "Feature", "geometry": {"type": "Point", "coordinates": [2.3734495, 48.84385255]}, "properties": {"kind": "stairs", "levels": "-2.0;-1.0;0.0", "level_min": -2.0, "level_max": 0.0, "name": ""}}, {"type": "Feature", "geometry": {"type": "Point", "coordinates": [2.37330455, 48.8439286]}, "properties": {"kind": "stairs", "levels": "0.0;1.0", "level_min": 0.0, "level_max": 1.0, "name": ""}}, {"type": "Feature", "geometry": {"type": "Point", "coordinates": [2.3741862, 48.845313]}, "properties": {"kind": "stairs", "levels": "0.0;1.0", "level_min": 0.0, "level_max": 1.0, "name": ""}}, {"type": "Feature", "geometry": {"type": "Point", "coordinates": [2.3742644999999998, 48.8434484]}, "properties": {"kind": "stairs", "levels": "-4.0;-3.0;-2.0", "level_min": -4.0, "level_max": -2.0, "name": ""}}, {"type": "Feature", "geometry": {"type": "Point", "coordinates": [2.3744375, 48.84335235]}, "properties": {"kind": "stairs", "levels": "-4.0;-3.0;-2.0", "level_min": -4.0, "level_max": -2.0, "name": ""}}, {"type": "Feature", "geometry": {"type": "Point", "coordinates": [2.3742814, 48.843462]}, "properties": {"kind": "stairs", "levels": "-4.0;-3.0;-2.0", "level_min": -4.0, "level_max": -2.0, "name": ""}}, {"type": "Feature", "geometry": {"type": "Point", "coordinates": [2.374452, 48.8433664]}, "properties": {"kind": "escalator", "levels": "-4.0;-3.0;-2.0", "level_min": -4.0, "level_max": -2.0, "name": ""}}, {"type": "Feature", "geometry": {"type": "Point", "coordinates": [2.3746041499999997, 48.84299505]}, "properties": {"kind": "escalator", "levels": "-3.0;-2.0", "level_min": -3.0, "level_max": -2.0, "name": ""}}, {"type": "Feature", "geometry": {"type": "Point", "coordinates": [2.3746263, 48.84301275]}, "properties": {"kind": "stairs", "levels": "-3.0;-2.0", "level_min": -3.0, "level_max": -2.0, "name": ""}}, {"type": "Feature", "geometry": {"type": "Point", "coordinates": [2.3744468999999997, 48.84358595]}, "properties": {"kind": "escalator", "levels": "-4.0;-3.0;-2.0", "level_min": -4.0, "level_max": -2.0, "name": ""}}, {"type": "Feature", "geometry": {"type": "Point", "coordinates": [2.3740441, 48.843601050000004]}, "properties": {"kind": "stairs", "levels": "-4.0;-3.0", "level_min": -4.0, "level_max": -3.0, "name": ""}}, {"type": "Feature", "geometry": {"type": "Point", "coordinates": [2.37402885, 48.8435886]}, "properties": {"kind": "escalator", "levels": "-4.0;-3.0", "level_min": -4.0, "level_max": -3.0, "name": ""}}, {"type": "Feature", "geometry": {"type": "Point", "coordinates": [2.3741971, 48.84371985]}, "properties": {"kind": "stairs", "levels": "-4.0;-3.0", "level_min": -4.0, "level_max": -3.0, "name": ""}}, {"type": "Feature", "geometry": {"type": "Point", "coordinates": [2.374639, 48.84350245]}, "properties": {"kind": "escalator", "levels": "-4.0;-3.0;-2.0", "level_min": -4.0, "level_max": -2.0, "name": ""}}, {"type": "Feature", "geometry": {"type": "Point", "coordinates": [2.3744626, 48.8435978]}, "properties": {"kind": "escalator", "levels": "-4.0;-3.0;-2.0", "level_min": -4.0, "level_max": -2.0, "name": ""}}, {"type": "Feature", "geometry": {"type": "Point", "coordinates": [2.37421275, 48.84373325]}, "properties": {"kind": "escalator", "levels": "-4.0;-3.0", "level_min": -4.0, "level_max": -3.0, "name": ""}}, {"type": "Feature", "geometry": {"type": "Point", "coordinates": [2.37462165, 48.8434891]}, "properties": {"kind": "escalator", "levels": "-4.0;-3.0;-2.0", "level_min": -4.0, "level_max": -2.0, "name": ""}}, {"type": "Feature", "geometry": {"type": "Point", "coordinates": [2.37319325, 48.8438383]}, "properties": {"kind": "escalator", "levels": "-3.0;-2.0", "level_min": -3.0, "level_max": -2.0, "name": ""}}, {"type": "Feature", "geometry": {"type": "Point", "coordinates": [2.3731467000000004, 48.84380245]}, "properties": {"kind": "escalator", "levels": "-3.0;-2.0", "level_min": -3.0, "level_max": -2.0, "name": ""}}, {"type": "Feature", "geometry": {"type": "Point", "coordinates": [2.37537895, 48.842798200000004]}, "properties": {"kind": "escalator", "levels": "-2.0;0.0", "level_min": -2.0, "level_max": 0.0, "name": ""}}, {"type": "Feature", "geometry": {"type": "Point", "coordinates": [2.3731273, 48.8445357]}, "properties": {"kind": "escalator", "levels": "-2.0;-1.0", "level_min": -2.0, "level_max": -1.0, "name": ""}}, {"type": "Feature", "geometry": {"type": "Point", "coordinates": [2.3730696, 48.84458065]}, "properties": {"kind": "stairs", "levels": "-2.0;-1.0", "level_min": -2.0, "level_max": -1.0, "name": ""}}, {"type": "Feature", "geometry": {"type": "Point", "coordinates": [2.3730919999999998, 48.84455525]}, "properties": {"kind": "escalator", "levels": "-2.0;-1.0", "level_min": -2.0, "level_max": -1.0, "name": ""}}, {"type": "Feature", "geometry": {"type": "Point", "coordinates": [2.37311025, 48.844545100000005]}, "properties": {"kind": "escalator", "levels": "-2.0;-1.0", "level_min": -2.0, "level_max": -1.0, "name": ""}}, {"type": "Feature", "geometry": {"type": "Point", "coordinates": [2.37316885, 48.8445259]}, "properties": {"kind": "stairs", "levels": "-2.0;-1.0", "level_min": -2.0, "level_max": -1.0, "name": ""}}, {"type": "Feature", "geometry": {"type": "Point", "coordinates": [2.375034171428571, 48.84326351428571]}, "properties": {"kind": "elevator", "levels": "-2.0;-1.0;0.0", "level_min": -2.0, "level_max": 0.0, "name": ""}}, {"type": "Feature", "geometry": {"type": "Point", "coordinates": [2.37672465, 48.8443628]}, "properties": {"kind": "escalator", "levels": "-1.0;0.0", "level_min": -1.0, "level_max": 0.0, "name": ""}}, {"type": "Feature", "geometry": {"type": "Point", "coordinates": [2.374118033333333, 48.84377618333334]}, "properties": {"kind": "elevator", "levels": "-2.0;0.0;1.0", "level_min": -2.0, "level_max": 1.0, "name": ""}}, {"type": "Feature", "geometry": {"type": "Point", "coordinates": [2.3732585166666667, 48.844034533333335]}, "properties": {"kind": "elevator", "levels": "-4.0;-3.0;-2.0", "level_min": -4.0, "level_max": -2.0, "name": ""}}, {"type": "Feature", "geometry": {"type": "Point", "coordinates": [2.3733644666666667, 48.84420875]}, "properties": {"kind": "elevator", "levels": "-4.0;-3.0;-2.0", "level_min": -4.0, "level_max": -2.0, "name": ""}}, {"type": "Feature", "geometry": {"type": "Point", "coordinates": [2.3750949, 48.84293445]}, "properties": {"kind": "stairs", "levels": "-2.0;0.0", "level_min": -2.0, "level_max": 0.0, "name": ""}}, {"type": "Feature", "geometry": {"type": "Point", "coordinates": [2.3762439125, 48.844973100000004]}, "properties": {"kind": "stairs", "levels": "-1.0;0.0", "level_min": -1.0, "level_max": 0.0, "name": ""}}, {"type": "Feature", "geometry": {"type": "Point", "coordinates": [2.3769248833333334, 48.8468653]}, "properties": {"kind": "elevator", "levels": "0.0;1.0;2.0", "level_min": 0.0, "level_max": 2.0, "name": ""}}, {"type": "Feature", "geometry": {"type": "Point", "coordinates": [2.376113316666667, 48.844519749999996]}, "properties": {"kind": "elevator", "levels": "0.0;1.0", "level_min": 0.0, "level_max": 1.0, "name": ""}}, {"type": "Feature", "geometry": {"type": "Point", "coordinates": [2.37692685, 48.84452061666667]}, "properties": {"kind": "elevator", "levels": "-1.0;0.0", "level_min": -1.0, "level_max": 0.0, "name": ""}}, {"type": "Feature", "geometry": {"type": "Point", "coordinates": [2.37434755, 48.844959716666665]}, "properties": {"kind": "stairs", "levels": "1.0;2.0", "level_min": 1.0, "level_max": 2.0, "name": ""}}, {"type": "Feature", "geometry": {"type": "Point", "coordinates": [2.3740218, 48.8454693]}, "properties": {"kind": "stairs", "levels": "-1.0;0.0", "level_min": -1.0, "level_max": 0.0, "name": ""}}, {"type": "Feature", "geometry": {"type": "Point", "coordinates": [2.3762436, 48.8449730875]}, "properties": {"kind": "stairs", "levels": "-2.0;-1.0", "level_min": -2.0, "level_max": -1.0, "name": ""}}]}