{"type": "FeatureCollection", "features": [{"type": "Feature", "geometry": {"type": "Point", "coordinates": [2.3742452, 48.8460989]}, "properties": {"name": "Paris Gare-de-Lyon", "level": 0.0, "kind": "post_office"}}, {"type": "Feature", "geometry": {"type": "Point", "coordinates": [2.3721997, 48.8446431]}, "properties": {"name": "Lyon Diderot", "level": 0.0, "kind": "parking"}}, {"type": "Feature", "geometry": {"type": "Point", "coordinates": [2.3728916, 48.8439502]}, "properties": {"name": "Parc Paris-Lyon", "level": 0.0, "kind": "parking"}}, {"type": "Feature", "geometry": {"type": "Point", "coordinates": [2.3758605, 48.8450514]}, "properties": {"name": "Parc M\u00e9dit\u00e9rann\u00e9e", "level": -1.0, "kind": "parking"}}, {"type": "Feature", "geometry": {"type": "Point", "coordinates": [2.3767814, 48.8442879]}, "properties": {"name": "Parking Chalon", "level": 0.0, "kind": "parking"}}, {"type": "Feature", "geometry": {"type": "Point", "coordinates": [2.372997, 48.8456487]}, "properties": {"name": "Boulevard Diderot", "level": 0.0, "kind": "entrance"}}, {"type": "Feature", "geometry": {"type": "Point", "coordinates": [2.373784, 48.8460183]}, "properties": {"name": "Rue Michel Chasles", "level": 0.0, "kind": "entrance"}}, {"type": "Feature", "geometry": {"type": "Point", "coordinates": [2.3773448, 48.8460766]}, "properties": {"name": "\u00c9cole \u00e9l\u00e9mentaire Diderot", "level": 0.0, "kind": "school"}}, {"type": "Feature", "geometry": {"type": "Point", "coordinates": [2.3740473, 48.847079]}, "properties": {"name": "Le Comptoir ITC", "level": 0.0, "kind": "electronics"}}, {"type": "Feature", "geometry": {"type": "Point", "coordinates": [2.3737083, 48.8467206]}, "properties": {"name": "Bouche b\u00e9e", "level": 0.0, "kind": "fast_food"}}, {"type": "Feature", "geometry": {"type": "Point", "coordinates": [2.3736879, 48.8467698]}, "properties": {"name": "Koala Pressing", "level": 0.0, "kind": "dry_cleaning"}}, {"type": "Feature", "geometry": {"type": "Point", "coordinates": [2.3731803, 48.8459819]}, "properties": {"name": "Pharmacie du Train Bleu", "level": 0.0, "kind": "pharmacy"}}, {"type": "Feature", "geometry": {"type": "Point", "coordinates": [2.3750554, 48.8472171]}, "properties": {"name": "Monceau Fleurs", "level": 0.0, "kind": "florist"}}, {"type": "Feature", "geometry": {"type": "Point", "coordinates": [2.3721785, 48.8469362]}, "properties": {"name": "SG", "level": 0.0, "kind": "bank"}}, {"type": "Feature", "geometry": {"type": "Point", "coordinates": [2.3740873, 48.8461048]}, "properties": {"name": "Cr\u00e9dit Agricole", "level": 0.0, "kind": "bank"}}, {"type": "Feature", "geometry": {"type": "Point", "coordinates": [2.3720988, 48.8458407]}, "properties": {"name": "Bistrot de la Gare", "level": 0.0, "kind": "restaurant"}}, {"type": "Feature", "geometry": {"type": "Point", "coordinates": [2.3726478, 48.8459184]}, "properties": {"name": "L'Europ\u00e9en", "level": 0.0, "kind": "restaurant"}}, {"type": "Feature", "geometry": {"type": "Point", "coordinates": [2.3724753, 48.8462369]}, "properties": {"name": "Monop'", "level": 0.0, "kind": "convenience"}}, {"type": "Feature", "geometry": {"type": "Point", "coordinates": [2.3725167, 48.8471479]}, "properties": {"name": "Ristorante Pellicano", "level": 0.0, "kind": "restaurant"}}, {"type": "Feature", "geometry": {"type": "Point", "coordinates": [2.3723704, 48.8464256]}, "properties": {"name": "Mon P\u00e8re \u00e9tait Boulanger", "level": 0.0, "kind": "bakery"}}, {"type": "Feature", "geometry": {"type": "Point", "coordinates": [2.3736366, 48.8460316]}, "properties": {"name": "Les Deux Savoie", "level": 0.0, "kind": "cafe"}}, {"type": "Feature", "geometry": {"type": "Point", "coordinates": [2.3723121, 48.8465693]}, "properties": {"name": "Grande Pharmacie du D\u00e9part", "level": 0.0, "kind": "pharmacy"}}, {"type": "Feature", "geometry": {"type": "Point", "coordinates": [2.3727405, 48.8470772]}, "properties": {"name": "Ginza", "level": 0.0, "kind": "restaurant"}}, {"type": "Feature", "geometry": {"type": "Point", "coordinates": [2.3726034, 48.8469814]}, "properties": {"name": "Karma", "level": 0.0, "kind": "restaurant"}}, {"type": "Feature", "geometry": {"type": "Point", "coordinates": [2.3725445, 48.8460336]}, "properties": {"name": "La Consigne", "level": 0.0, "kind": "cafe"}}, {"type": "Feature", "geometry": {"type": "Point", "coordinates": [2.3725698, 48.8459741]}, "properties": {"name": "Le Muratti's", "level": 0.0, "kind": "restaurant"}}, {"type": "Feature", "geometry": {"type": "Point", "coordinates": [2.3729977, 48.8459635]}, "properties": {"name": "Aux Cadrans", "level": 0.0, "kind": "restaurant"}}, {"type": "Feature", "geometry": {"type": "Point", "coordinates": [2.3718694, 48.8458112]}, "properties": {"name": "Fosca'", "level": 0.0, "kind": "restaurant"}}, {"type": "Feature", "geometry": {"type": "Point", "coordinates": [2.3718546, 48.8464544]}, "properties": {"name": "Brasserie\u202f\u2013\u202fPizzeria d\u2019Azur", "level": 0.0, "kind": "restaurant"}}, {"type": "Feature", "geometry": {"type": "Point", "coordinates": [2.3720667, 48.8459544]}, "properties": {"name": "Express de Lyon", "level": 0.0, "kind": "pub"}}, {"type": "Feature", "geometry": {"type": "Point", "coordinates": [2.3720079, 48.8461054]}, "properties": {"name": "\u00c9picerie Fine", "level": 0.0, "kind": "gift"}}, {"type": "Feature", "geometry": {"type": "Point", "coordinates": [2.3736501, 48.8471159]}, "properties": {"name": "Ayasofya", "level": 0.0, "kind": "fast_food"}}, {"type": "Feature", "geometry": {"type": "Point", "coordinates": [2.3737245, 48.8462948]}, "properties": {"name": "Paris Mustang", "level": 0.0, "kind": "bookmaker"}}, {"type": "Feature", "geometry": {"type": "Point", "coordinates": [2.374916, 48.8461596]}, "properties": {"name": "Caisse d'\u00c9pargne", "level": 0.0, "kind": "bank"}}, {"type": "Feature", "geometry": {"type": "Point", "coordinates": [2.3751034, 48.8461821]}, "properties": {"name": "Franprix", "level": 0.0, "kind": "convenience"}}, {"type": "Feature", "geometry": {"type": "Point", "coordinates": [2.3752159, 48.846195]}, "properties": {"name": "Station Caf\u00e9", "level": 0.0, "kind": "cafe"}}, {"type": "Feature", "geometry": {"type": "Point", "coordinates": [2.3753959, 48.8462167]}, "properties": {"name": "Entre les Vignes", "level": 0.0, "kind": "restaurant"}}, {"type": "Feature", "geometry": {"type": "Point", "coordinates": [2.3768375, 48.8469007]}, "properties": {"name": "King Marcel", "level": 0.0, "kind": "restaurant"}}, {"type": "Feature", "geometry": {"type": "Point", "coordinates": [2.3767039, 48.8460166]}, "properties": {"name": "Pharmacie de la Gare de Lyon", "level": 0.0, "kind": "pharmacy"}}, {"type": "Feature", "geometry": {"type": "Point", "coordinates": [2.37564, 48.8458763]}, "properties": {"name": "La Terrasse de Lyon", "level": 0.0, "kind": "cafe"}}, {"type": "Feature", "geometry": {"type": "Point", "coordinates": [2.3753513, 48.8458747]}, "properties": {"name": "Le Maximilien", "level": 0.0, "kind": "bar"}}, {"type": "Feature", "geometry": {"type": "Point", "coordinates": [2.3752711, 48.8458636]}, "properties": {"name": "Gastronom \u211612", "level": 0.0, "kind": "convenience"}}, {"type": "Feature", "geometry": {"type": "Point", "coordinates": [2.3750739, 48.8458473]}, "properties": {"name": "Gare aux vins", "level": 0.0, "kind": "restaurant"}}, {"type": "Feature", "geometry": {"type": "Point", "coordinates": [2.3747494, 48.8458024]}, "properties": {"name": "La Parisienne", "level": 0.0, "kind": "fast_food"}}, {"type": "Feature", "geometry": {"type": "Point", "coordinates": [2.3745532, 48.8457782]}, "properties": {"name": "LCL", "level": 0.0, "kind": "bank"}}, {"type": "Feature", "geometry": {"type": "Point", "coordinates": [2.3743734, 48.8462192]}, "properties": {"name": "Bodrum", "level": 0.0, "kind": "fast_food"}}, {"type": "Feature", "geometry": {"type": "Point", "coordinates": [2.3744786, 48.846387]}, "properties": {"name": "Tchip", "level": 0.0, "kind": "hairdresser"}}, {"type": "Feature", "geometry": {"type": "Point", "coordinates": [2.3746656, 48.8471535]}, "properties": {"name": "Couleurs Ga\u00efa", "level": 0.0, "kind": "hairdresser"}}, {"type": "Feature", "geometry": {"type": "Point", "coordinates": [2.3732368, 48.8467193]}, "properties": {"name": "Petit March\u00e9", "level": 0.0, "kind": "vacant"}}, {"type": "Feature", "geometry": {"type": "Point", "coordinates": [2.3730534, 48.8469247]}, "properties": {"name": "Le Duc de Richelieu", "level": 0.0, "kind": "restaurant"}}, {"type": "Feature", "geometry": {"type": "Point", "coordinates": [2.3729742, 48.8466746]}, "properties": {"name": "Traiteur de la Gare", "level": 0.0, "kind": "fast_food"}}, {"type": "Feature", "geometry": {"type": "Point", "coordinates": [2.3766059, 48.8470632]}, "properties": {"name": "Hector Malot", "level": 0.0, "kind": "parking"}}, {"type": "Feature", "geometry": {"type": "Point", "coordinates": [2.3715454, 48.8471577]}, "properties": {"name": "La Cappadoce", "level": 0.0, "kind": "fast_food"}}, {"type": "Feature", "geometry": {"type": "Point", "coordinates": [2.3714737, 48.8474555]}, "properties": {"name": "La Parisienne", "level": 0.0, "kind": "bakery"}}, {"type": "Feature", "geometry": {"type": "Point", "coordinates": [2.3708678, 48.8472307]}, "properties": {"name": "Li Yuan", "level": 0.0, "kind": "restaurant"}}, {"type": "Feature", "geometry": {"type": "Point", "coordinates": [2.3701195, 48.8456137]}, "properties": {"name": "Lyonen", "level": 0.0, "kind": "fast_food"}}, {"type": "Feature", "geometry": {"type": "Point", "coordinates": [2.3707747, 48.8453198]}, "properties": {"name": "Le Paris Lyon", "level": 0.0, "kind": "restaurant"}}, {"type": "Feature", "geometry": {"type": "Point", "coordinates": [2.3717151, 48.8457953]}, "properties": {"name": "Terminus", "level": 0.0, "kind": "cafe"}}, {"type": "Feature", "geometry": {"type": "Point", "coordinates": [2.3704965, 48.8459611]}, "properties": {"name": "louer une moto.fr", "level": 0.0, "kind": "rental"}}, {"type": "Feature", "geometry": {"type": "Point", "coordinates": [2.3704796, 48.84573]}, "properties": {"name": "La Maison du D\u00e9lice", "level": 0.0, "kind": "restaurant"}}, {"type": "Feature", "geometry": {"type": "Point", "coordinates": [2.3716816, 48.8431185]}, "properties": {"name": "Salle de la Mutuelle RATP", "level": 0.0, "kind": "theatre"}}, {"type": "Feature", "geometry": {"type": "Point", "coordinates": [2.3737173, 48.846496]}, "properties": {"name": "Subway", "level": 0.0, "kind": "fast_food"}}, {"type": "Feature", "geometry": {"type": "Point", "coordinates": [2.3734706, 48.8460141]}, "properties": {"name": "BNP Paribas", "level": 0.0, "kind": "bank"}}, {"type": "Feature", "geometry": {"type": "Point", "coordinates": [2.3733044, 48.8465204]}, "properties": {"name": "Hayashi Sushi", "level": 0.0, "kind": "fast_food"}}, {"type": "Feature", "geometry": {"type": "Point", "coordinates": [2.3735852, 48.8467785]}, "properties": {"name": "On Nails", "level": 0.0, "kind": "beauty"}}, {"type": "Feature", "geometry": {"type": "Point", "coordinates": [2.376085, 48.8467554]}, "properties": {"name": "La Revanche", "level": 0.0, "kind": "pub"}}, {"type": "Feature", "geometry": {"type": "Point", "coordinates": [2.3770818, 48.8452145]}, "properties": {"name": "T(h)\u00e9", "level": 0.0, "kind": "restaurant"}}, {"type": "Feature", "geometry": {"type": "Point", "coordinates": [2.3768682, 48.8453323]}, "properties": {"name": "L'Esplanade", "level": 0.0, "kind": "fast_food"}}, {"type": "Feature", "geometry": {"type": "Point", "coordinates": [2.3773339, 48.8449603]}, "properties": {"name": "CocciMarket", "level": 0.0, "kind": "convenience"}}, {"type": "Feature", "geometry": {"type": "Point", "coordinates": [2.3703736, 48.8456619]}, "properties": {"name": "Centre dentaire de Gare de Lyon", "level": 0.0, "kind": "dentist"}}, {"type": "Feature", "geometry": {"type": "Point", "coordinates": [2.3752027, 48.8461065]}, "properties": {"name": "Rue Legraverend", "level": 0.0, "kind": "entrance"}}, {"type": "Feature", "geometry": {"type": "Point", "coordinates": [2.37525, 48.8459545]}, "properties": {"name": "Rue de Chalon", "level": 0.0, "kind": "entrance"}}, {"type": "Feature", "geometry": {"type": "Point", "coordinates": [2.3715912, 48.8472498]}, "properties": {"name": "l'etincelle", "level": 0.0, "kind": "bar"}}, {"type": "Feature", "geometry": {"type": "Point", "coordinates": [2.3709948, 48.8460948]}, "properties": {"name": "Th\u00e9\u00e2tre Traversi\u00e8re", "level": 0.0, "kind": "theatre"}}, {"type": "Feature", "geometry": {"type": "Point", "coordinates": [2.3706372, 48.8458531]}, "properties": {"name": "Le Verre \u00e0 Vin", "level": 0.0, "kind": "restaurant"}}, {"type": "Feature", "geometry": {"type": "Point", "coordinates": [2.3720493, 48.8444657]}, "properties": {"name": "Rue Van Gogh", "level": -2.0, "kind": "entrance"}}, {"type": "Feature", "geometry": {"type": "Point", "coordinates": [2.3718257, 48.8446992]}, "properties": {"name": "Rue Van Gogh", "level": -2.0, "kind": "entrance"}}, {"type": "Feature", "geometry": {"type": "Point", "coordinates": [2.3757032, 48.8473423]}, "properties": {"name": "C\u00e9cile et Jeanne", "level": 0.0, "kind": "jewelry"}}, {"type": "Feature", "geometry": {"type": "Point", "coordinates": [2.3760832, 48.8458346]}, "properties": {"name": "Elecson", "level": 0.0, "kind": "hifi"}}, {"type": "Feature", "geometry": {"type": "Point", "coordinates": [2.3753162, 48.8469989]}, "properties": {"name": "FLM", "level": 0.0, "kind": "funeral_directors"}}, {"type": "Feature", "geometry": {"type": "Point", "coordinates": [2.3757482, 48.8464451]}, "properties": {"name": "Profil +", "level": 0.0, "kind": "car"}}, {"type": "Feature", "geometry": {"type": "Point", "coordinates": [2.3704481, 48.8473388]}, "properties": {"name": "March\u00e9 Ledru-Rollin", "level": 0.0, "kind": "marketplace"}}, {"type": "Feature", "geometry": {"type": "Point", "coordinates": [2.3755868, 48.8469638]}, "properties": {"name": "La Promenade", "level": 0.0, "kind": "cafe"}}, {"type": "Feature", "geometry": {"type": "Point", "coordinates": [2.3753154, 48.8428136]}, "properties": {"name": "Minist\u00e8re de l'\u00c9conomie et Finances", "level": -2.0, "kind": "entrance"}}, {"type": "Feature", "geometry": {"type": "Point", "coordinates": [2.3755813, 48.8446111]}, "properties": {"name": "Bureau des contraventions SNCF", "level": 0.0, "kind": "public_office"}}, {"type": "Feature", "geometry": {"type": "Point", "coordinates": [2.3746804, 48.8428945]}, "properties": {"name": "Rue Villiot", "level": -2.0, "kind": "entrance"}}, {"type": "Feature", "geometry": {"type": "Point", "coordinates": [2.3723808, 48.844137]}, "properties": {"name": "Paul", "level": 0.0, "kind": "bakery"}}, {"type": "Feature", "geometry": {"type": "Point", "coordinates": [2.371336, 48.8457468]}, "properties": {"name": "em lyon business school", "level": 0.0, "kind": "college"}}, {"type": "Feature", "geometry": {"type": "Point", "coordinates": [2.3757639, 48.8463066]}, "properties": {"name": "Carrefour City", "level": 0.0, "kind": "convenience"}}, {"type": "Feature", "geometry": {"type": "Point", "coordinates": [2.3750047, 48.8455039]}, "properties": {"name": "Relais 59", "level": 0.0, "kind": "social_facility"}}, {"type": "Feature", "geometry": {"type": "Point", "coordinates": [2.3764533, 48.8455237]}, "properties": {"name": "esp@ce num\u00e9rique", "level": 0.0, "kind": "social_facility"}}, {"type": "Feature", "geometry": {"type": "Point", "coordinates": [2.3700365, 48.8469719]}, "properties": {"name": "ASVS Alarme Auto-surveillance", "level": 0.0, "kind": "electronics"}}, {"type": "Feature", "geometry": {"type": "Point", "coordinates": [2.370108, 48.8470233]}, "properties": {"name": "Le Quincy", "level": 0.0, "kind": "restaurant"}}, {"type": "Feature", "geometry": {"type": "Point", "coordinates": [2.3702483, 48.8471028]}, "properties": {"name": "Deliziosa", "level": 0.0, "kind": "fast_food"}}, {"type": "Feature", "geometry": {"type": "Point", "coordinates": [2.3703411, 48.8471524]}, "properties": {"name": "\u00c0 la fr\u00e9gate", "level": 0.0, "kind": "restaurant"}}, {"type": "Feature", "geometry": {"type": "Point", "coordinates": [2.3704177, 48.847201]}, "properties": {"name": "Lapie", "level": 0.0, "kind": "hairdresser"}}, {"type": "Feature", "geometry": {"type": "Point", "coordinates": [2.3705071, 48.8472156]}, "properties": {"name": "Lena Pyr\u00e9e", "level": 0.0, "kind": "dentist"}}, {"type": "Feature", "geometry": {"type": "Point", "coordinates": [2.3709038, 48.8474695]}, "properties": {"name": "Le P'tit Zinc", "level": 0.0, "kind": "restaurant"}}, {"type": "Feature", "geometry": {"type": "Point", "coordinates": [2.372087, 48.8470619]}, "properties": {"name": "Clode", "level": 0.0, "kind": "cafe"}}, {"type": "Feature", "geometry": {"type": "Point", "coordinates": [2.372113, 48.8469983]}, "properties": {"name": "Change Or", "level": 0.0, "kind": "bank"}}, {"type": "Feature", "geometry": {"type": "Point", "coordinates": [2.3740562, 48.8466233]}, "properties": {"name": "Le Bistrot lyonnais", "level": 0.0, "kind": "restaurant"}}, {"type": "Feature", "geometry": {"type": "Point", "coordinates": [2.3747785, 48.8468034]}, "properties": {"name": "Aux D\u00e9lices de Pekin", "level": 0.0, "kind": "restaurant"}}, {"type": "Feature", "geometry": {"type": "Point", "coordinates": [2.3733576, 48.8433621]}, "properties": {"name": "Maison de la RATP", "level": -2.0, "kind": "entrance"}}, {"type": "Feature", "geometry": {"type": "Point", "coordinates": [2.3735948, 48.844231]}, "properties": {"name": "Tour de l'Horloge", "level": 0.0, "kind": "entrance"}}, {"type": "Feature", "geometry": {"type": "Point", "coordinates": [2.3774781, 48.8470461]}, "properties": {"name": "Laverie S.B.S Libre-Service", "level": 0.0, "kind": "laundry"}}, {"type": "Feature", "geometry": {"type": "Point", "coordinates": [2.3761851, 48.8467043]}, "properties": {"name": "Warhammer", "level": 0.0, "kind": "games"}}, {"type": "Feature", "geometry": {"type": "Point", "coordinates": [2.3724726, 48.8461498]}, "properties": {"name": "O' D\u00e9lices", "level": 0.0, "kind": "fast_food"}}, {"type": "Feature", "geometry": {"type": "Point", "coordinates": [2.3717286, 48.846606]}, "properties": {"name": "Muki Sushi", "level": 0.0, "kind": "fast_food"}}, {"type": "Feature", "geometry": {"type": "Point", "coordinates": [2.3717515, 48.8466814]}, "properties": {"name": "Love Store", "level": 0.0, "kind": "erotic"}}, {"type": "Feature", "geometry": {"type": "Point", "coordinates": [2.3740626, 48.8464695]}, "properties": {"name": "Le Tan", "level": 0.0, "kind": "restaurant"}}, {"type": "Feature", "geometry": {"type": "Point", "coordinates": [2.3742421, 48.843428]}, "properties": {"name": "Minist\u00e8re de l'\u00c9conomie et des Finances", "level": -2.0, "kind": "entrance"}}, {"type": "Feature", "geometry": {"type": "Point", "coordinates": [2.3755094, 48.8445489]}, "properties": {"name": "Photomaton", "level": 1.0, "kind": "photo_booth"}}, {"type": "Feature", "geometry": {"type": "Point", "coordinates": [2.3740521, 48.843758]}, "properties": {"name": "Photomaton", "level": -2.0, "kind": "photo_booth"}}, {"type": "Feature", "geometry": {"type": "Point", "coordinates": [2.3724794, 48.8440829]}, "properties": {"name": "Exki", "level": 0.0, "kind": "fast_food"}}, {"type": "Feature", "geometry": {"type": "Point", "coordinates": [2.3725116, 48.8440224]}, "properties": {"name": "Gamma Caf\u00e9", "level": 1.0, "kind": "cafe"}}, {"type": "Feature", "geometry": {"type": "Point", "coordinates": [2.3758753, 48.8450161]}, "properties": {"name": "Parking M\u00e9diterran\u00e9e", "level": 0.0, "kind": "parking"}}, {"type": "Feature", "geometry": {"type": "Point", "coordinates": [2.3702946, 48.8452982]}, "properties": {"name": "Copy-Top", "level": 0.0, "kind": "copyshop"}}, {"type": "Feature", "geometry": {"type": "Point", "coordinates": [2.3740485, 48.8463385]}, "properties": {"name": "Grill Istanbul Kebab", "level": 0.0, "kind": "fast_food"}}, {"type": "Feature", "geometry": {"type": "Point", "coordinates": [2.3733881, 48.8469697]}, "properties": {"name": "Paris Lyon", "level": 0.0, "kind": "convenience"}}, {"type": "Feature", "geometry": {"type": "Point", "coordinates": [2.374053, 48.8464155]}, "properties": {"name": "Le Meilleur des Mondes", "level": 0.0, "kind": "internet_cafe"}}, {"type": "Feature", "geometry": {"type": "Point", "coordinates": [2.3735485, 48.8451904]}, "properties": {"name": "Photomaton", "level": 1.0, "kind": "photo_booth"}}, {"type": "Feature", "geometry": {"type": "Point", "coordinates": [2.371533, 48.8473632]}, "properties": {"name": "Le Cr\u00e9mieux", "level": 0.0, "kind": "fast_food"}}, {"type": "Feature", "geometry": {"type": "Point", "coordinates": [2.371533, 48.8473632]}, "properties": {"name": "Le Cr\u00e9mieux", "level": 1.0, "kind": "fast_food"}}, {"type": "Feature", "geometry": {"type": "Point", "coordinates": [2.3716432, 48.8463104]}, "properties": {"name": "La Travers\u00e9e de Paris", "level": 0.0, "kind": "restaurant"}}, {"type": "Feature", "geometry": {"type": "Point", "coordinates": [2.3751881, 48.8436454]}, "properties": {"name": "Photomaton", "level": 0.0, "kind": "photo_booth"}}, {"type": "Feature", "geometry": {"type": "Point", "coordinates": [2.3733353, 48.8443984]}, "properties": {"name": "Photomaton", "level": 1.0, "kind": "photo_booth"}}, {"type": "Feature", "geometry": {"type": "Point", "coordinates": [2.3732816, 48.8444158]}, "properties": {"name": "Photomaton", "level": 0.0, "kind": "photo_booth"}}, {"type": "Feature", "geometry": {"type": "Point", "coordinates": [2.3746881, 48.8428697]}, "properties": {"name": "Rue Villiot", "level": -2.0, "kind": "entrance"}}, {"type": "Feature", "geometry": {"type": "Point", "coordinates": [2.3746088, 48.8429355]}, "properties": {"name": "Rue Villiot", "level": 0.0, "kind": "entrance"}}, {"type": "Feature", "geometry": {"type": "Point", "coordinates": [2.3708882, 48.8456969]}, "properties": {"name": "\u00c9ric Kayser", "level": 0.0, "kind": "bakery"}}, {"type": "Feature", "geometry": {"type": "Point", "coordinates": [2.3726615, 48.8468661]}, "properties": {"name": "Clinique V\u00e9t\u00e9rinaire du Chat", "level": 0.0, "kind": "veterinary"}}, {"type": "Feature", "geometry": {"type": "Point", "coordinates": [2.3700953, 48.8464656]}, "properties": {"name": "\u00c9picerie Yucos", "level": 0.0, "kind": "deli"}}, {"type": "Feature", "geometry": {"type": "Point", "coordinates": [2.3720441, 48.8444961]}, "properties": {"name": "Rue Van Gogh", "level": -2.0, "kind": "entrance"}}, {"type": "Feature", "geometry": {"type": "Point", "coordinates": [2.3718155, 48.8446803]}, "properties": {"name": "Rue Van Gogh", "level": -2.0, "kind": "entrance"}}, {"type": "Feature", "geometry": {"type": "Point", "coordinates": [2.3734291, 48.8443212]}, "properties": {"name": "Tour de l'Horloge", "level": 0.0, "kind": "entrance"}}, {"type": "Feature", "geometry": {"type": "Point", "coordinates": [2.3735208, 48.8438318]}, "properties": {"name": "Rue de Bercy", "level": -2.0, "kind": "entrance"}}, {"type": "Feature", "geometry": {"type": "Point", "coordinates": [2.3734866, 48.8438323]}, "properties": {"name": "Rue de Bercy", "level": -2.0, "kind": "entrance"}}, {"type": "Feature", "geometry": {"type": "Point", "coordinates": [2.3753003, 48.8428415]}, "properties": {"name": "Minist\u00e8re de l'\u00c9conomie et Finances", "level": -2.0, "kind": "entrance"}}, {"type": "Feature", "geometry": {"type": "Point", "coordinates": [2.3763697, 48.8466118]}, "properties": {"name": "Centre Sp\u00e9cialis\u00e9 du Genou", "level": 0.0, "kind": "doctors"}}, {"type": "Feature", "geometry": {"type": "Point", "coordinates": [2.3772129, 48.8456466]}, "properties": {"name": "\u00c9cole maternelle Jean Bouton", "level": 0.0, "kind": "school"}}, {"type": "Feature", "geometry": {"type": "Point", "coordinates": [2.3769591, 48.8458103]}, "properties": {"name": "\u00c9cole \u00e9l\u00e9mentaire Jean Bouton", "level": 0.0, "kind": "school"}}, {"type": "Feature", "geometry": {"type": "Point", "coordinates": [2.3752279, 48.8425475]}, "properties": {"name": "Coll\u00e8ge Paul Verlaine", "level": 0.0, "kind": "school"}}, {"type": "Feature", "geometry": {"type": "Point", "coordinates": [2.374814, 48.8427598]}, "properties": {"name": "\u00c9cole Maternelle", "level": 0.0, "kind": "school"}}, {"type": "Feature", "geometry": {"type": "Point", "coordinates": [2.3762968, 48.8459942]}, "properties": {"name": "Maison M\u00e9nier", "level": 0.0, "kind": "bakery"}}, {"type": "Feature", "geometry": {"type": "Point", "coordinates": [2.3765935, 48.8468906]}, "properties": {"name": "Bicloune", "level": 0.0, "kind": "bicycle"}}, {"type": "Feature", "geometry": {"type": "Point", "coordinates": [2.3737247, 48.8463623]}, "properties": {"name": "Afri Call Food", "level": 0.0, "kind": "fast_food"}}, {"type": "Feature", "geometry": {"type": "Point", "coordinates": [2.3736815, 48.8471749]}, "properties": {"name": "Alena", "level": 0.0, "kind": "hairdresser"}}, {"type": "Feature", "geometry": {"type": "Point", "coordinates": [2.3736859, 48.8470183]}, "properties": {"name": "Sexy shop", "level": 0.0, "kind": "erotic"}}, {"type": "Feature", "geometry": {"type": "Point", "coordinates": [2.3720021, 48.8472608]}, "properties": {"name": "Lyora & Co", "level": 0.0, "kind": "jewelry"}}, {"type": "Feature", "geometry": {"type": "Point", "coordinates": [2.3720354, 48.8471904]}, "properties": {"name": "Les Embruns", "level": 0.0, "kind": "restaurant"}}, {"type": "Feature", "geometry": {"type": "Point", "coordinates": [2.3740379, 48.8474764]}, "properties": {"name": "SIRVAM", "level": 0.0, "kind": "vacuum_cleaner"}}, {"type": "Feature", "geometry": {"type": "Point", "coordinates": [2.3774487, 48.8470139]}, "properties": {"name": "Shan Go\u00fbt", "level": 0.0, "kind": "restaurant"}}, {"type": "Feature", "geometry": {"type": "Point", "coordinates": [2.3761031, 48.8471465]}, "properties": {"name": "L'Atelier", "level": 0.0, "kind": "art"}}, {"type": "Feature", "geometry": {"type": "Point", "coordinates": [2.3733349, 48.8463857]}, "properties": {"name": "Aux Deux Saveurs", "level": 0.0, "kind": "restaurant"}}, {"type": "Feature", "geometry": {"type": "Point", "coordinates": [2.3726753, 48.8455394]}, "properties": {"name": "Gare de Lyon - Place Louis Armand", "level": 0.0, "kind": "bicycle_rental"}}, {"type": "Feature", "geometry": {"type": "Point", "coordinates": [2.3742067, 48.8456906]}, "properties": {"name": "Gare de Lyon - Chalon", "level": 0.0, "kind": "bicycle_rental"}}, {"type": "Feature", "geometry": {"type": "Point", "coordinates": [2.370511, 48.8438961]}, "properties": {"name": "Gare de Lyon - Van Gogh", "level": 0.0, "kind": "bicycle_rental"}}, {"type": "Feature", "geometry": {"type": "Point", "coordinates": [2.3704052, 48.8461896]}, "properties": {"name": "Bercy - Traversi\u00e9re", "level": 0.0, "kind": "bicycle_rental"}}, {"type": "Feature", "geometry": {"type": "Point", "coordinates": [2.3726255, 48.8439723]}, "properties": {"name": "Europcar", "level": 1.0, "kind": "car_rental"}}, {"type": "Feature", "geometry": {"type": "Point", "coordinates": [2.3722716, 48.843879]}, "properties": {"name": "Hertz", "level": 1.0, "kind": "car_rental"}}, {"type": "Feature", "geometry": {"type": "Point", "coordinates": [2.3723183, 48.8439231]}, "properties": {"name": "Brasserie La Tour", "level": 1.0, "kind": "restaurant"}}, {"type": "Feature", "geometry": {"type": "Point", "coordinates": [2.3727929, 48.8438446]}, "properties": {"name": "Gamma Caf\u00e9", "level": 0.0, "kind": "bar"}}, {"type": "Feature", "geometry": {"type": "Point", "coordinates": [2.3711224, 48.845174]}, "properties": {"name": "Starbucks", "level": 0.0, "kind": "cafe"}}, {"type": "Feature", "geometry": {"type": "Point", "coordinates": [2.3758893, 48.844683]}, "properties": {"name": "Photomaton", "level": 1.0, "kind": "photo_booth"}}, {"type": "Feature", "geometry": {"type": "Point", "coordinates": [2.373305, 48.8443331]}, "properties": {"name": "Pickup Station", "level": 0.0, "kind": "parcel_locker"}}, {"type": "Feature", "geometry": {"type": "Point", "coordinates": [2.3751646, 48.8428963]}, "properties": {"name": "Minist\u00e8re de l'\u00c9conomie et Finances", "level": -2.0, "kind": "entrance"}}, {"type": "Feature", "geometry": {"type": "Point", "coordinates": [2.3770544, 48.8468877]}, "properties": {"name": "Hector Malot - Daumesnil", "level": 0.0, "kind": "bicycle_rental"}}, {"type": "Feature", "geometry": {"type": "Point", "coordinates": [2.3719658, 48.8473717]}, "properties": {"name": "Cash Express", "level": 0.0, "kind": "computer"}}, {"type": "Feature", "geometry": {"type": "Point", "coordinates": [2.376745, 48.8468307]}, "properties": {"name": "Ithemba Design Ethik", "level": 0.0, "kind": "lighting"}}, {"type": "Feature", "geometry": {"type": "Point", "coordinates": [2.3716536, 48.846885]}, "properties": {"name": "Un Cyber \u00e0 Paris", "level": 0.0, "kind": "mobile_phone"}}, {"type": "Feature", "geometry": {"type": "Point", "coordinates": [2.3722372, 48.8438487]}, "properties": {"name": "Pharmacie Gamma", "level": 1.0, "kind": "pharmacy"}}, {"type": "Feature", "geometry": {"type": "Point", "coordinates": [2.3744317, 48.8471141]}, "properties": {"name": "En-t\u00eate", "level": 0.0, "kind": "hairdresser"}}, {"type": "Feature", "geometry": {"type": "Point", "coordinates": [2.3745395, 48.8471329]}, "properties": {"name": "Etablissements Nicolas", "level": 0.0, "kind": "lighting"}}, {"type": "Feature", "geometry": {"type": "Point", "coordinates": [2.372796, 48.8445867]}, "properties": {"name": "Coffee shop", "level": 0.0, "kind": "cafe"}}, {"type": "Feature", "geometry": {"type": "Point", "coordinates": [2.3755601, 48.8473907]}, "properties": {"name": "Saargale", "level": 0.0, "kind": "clothes"}}, {"type": "Feature", "geometry": {"type": "Point", "coordinates": [2.3755244, 48.8462431]}, "properties": {"name": "Chez Valentino", "level": 0.0, "kind": "restaurant"}}, {"type": "Feature", "geometry": {"type": "Point", "coordinates": [2.3763332, 48.8449551]}, "properties": {"name": "Repair and run", "level": 0.0, "kind": "bicycle"}}, {"type": "Feature", "geometry": {"type": "Point", "coordinates": [2.3701889, 48.8470645]}, "properties": {"name": "Orp'hair", "level": 0.0, "kind": "hairdresser"}}, {"type": "Feature", "geometry": {"type": "Point", "coordinates": [2.3708158, 48.8474237]}, "properties": {"name": "Iqra mini market", "level": 0.0, "kind": "convenience"}}, {"type": "Feature", "geometry": {"type": "Point", "coordinates": [2.3707809, 48.8471648]}, "properties": {"name": "Taj Mahal", "level": 0.0, "kind": "restaurant"}}, {"type": "Feature", "geometry": {"type": "Point", "coordinates": [2.3748453, 48.8469161]}, "properties": {"name": "Impact Voyages", "level": 0.0, "kind": "travel_agency"}}, {"type": "Feature", "geometry": {"type": "Point", "coordinates": [2.3719335, 48.8463223]}, "properties": {"name": "Dentego", "level": 0.0, "kind": "dentist"}}, {"type": "Feature", "geometry": {"type": "Point", "coordinates": [2.3706767, 48.8473507]}, "properties": {"name": "L'Atelier de Beaut\u00e9", "level": 0.0, "kind": "beauty"}}, {"type": "Feature", "geometry": {"type": "Point", "coordinates": [2.374048, 48.8462469]}, "properties": {"name": "Fresh Poke", "level": 0.0, "kind": "fast_food"}}, {"type": "Feature", "geometry": {"type": "Point", "coordinates": [2.3722888, 48.8440817]}, "properties": {"name": "\u00c9couter Voir", "level": 0.0, "kind": "optician"}}, {"type": "Feature", "geometry": {"type": "Point", "coordinates": [2.374974, 48.8458382]}, "properties": {"name": "Les Jardins d\u2019Ilham", "level": 0.0, "kind": "florist"}}, {"type": "Feature", "geometry": {"type": "Point", "coordinates": [2.3774531, 48.8464958]}, "properties": {"name": "Bronzes de France", "level": 0.0, "kind": "interior_decoration"}}, {"type": "Feature", "geometry": {"type": "Point", "coordinates": [2.3724224, 48.8463305]}, "properties": {"name": "Dr Serge Cohen", "level": 0.0, "kind": "doctors"}}, {"type": "Feature", "geometry": {"type": "Point", "coordinates": [2.370995, 48.8452242]}, "properties": {"name": "Courtyard", "level": 0.0, "kind": "parking_entrance"}}, {"type": "Feature", "geometry": {"type": "Point", "coordinates": [2.3716549, 48.8443117]}, "properties": {"name": "Laho Rooftop", "level": 17.0, "kind": "bar"}}, {"type": "Feature", "geometry": {"type": "Point", "coordinates": [2.3735637, 48.8451829]}, "properties": {"name": "Photomaton", "level": 1.0, "kind": "photo_booth"}}, {"type": "Feature", "geometry": {"type": "Point", "coordinates": [2.3740336, 48.8474251]}, "properties": {"name": "\u00c0 bout de fil", "level": 0.0, "kind": "sewing"}}, {"type": "Feature", "geometry": {"type": "Point", "coordinates": [2.3768851, 48.8443026]}, "properties": {"name": "Junior & Cie", "level": 0.0, "kind": "meeting_point"}}, {"type": "Feature", "geometry": {"type": "Point", "coordinates": [2.3752104, 48.8438995]}, "properties": {"name": "Photomaton", "level": 0.0, "kind": "photo_booth"}}, {"type": "Feature", "geometry": {"type": "Point", "coordinates": [2.3764137, 48.8450596]}, "properties": {"name": "Sixt", "level": -6.0, "kind": "car_rental"}}, {"type": "Feature", "geometry": {"type": "Point", "coordinates": [2.3767364, 48.8450227]}, "properties": {"name": "ADA", "level": -1.0, "kind": "car_rental"}}, {"type": "Feature", "geometry": {"type": "Point", "coordinates": [2.3767236, 48.8450043]}, "properties": {"name": "Budget", "level": -1.0, "kind": "car_rental"}}, {"type": "Feature", "geometry": {"type": "Point", "coordinates": [2.3767043, 48.845015]}, "properties": {"name": "Avis", "level": -1.0, "kind": "car_rental"}}, {"type": "Feature", "geometry": {"type": "Point", "coordinates": [2.3706067, 48.845332]}, "properties": {"name": "D\u00e9lices de la gare", "level": 0.0, "kind": "bakery"}}, {"type": "Feature", "geometry": {"type": "Point", "coordinates": [2.376936, 48.846069]}, "properties": {"name": "Au Levant", "level": 0.0, "kind": "restaurant"}}, {"type": "Feature", "geometry": {"type": "Point", "coordinates": [2.3735439, 48.8467689]}, "properties": {"name": "Fra\u00eecheur & Tradition", "level": 0.0, "kind": "restaurant"}}, {"type": "Feature", "geometry": {"type": "Point", "coordinates": [2.3720434, 48.8471447]}, "properties": {"name": "Yaba\u00ef sando", "level": 0.0, "kind": "restaurant"}}, {"type": "Feature", "geometry": {"type": "Point", "coordinates": [2.3747333, 48.8461889]}, "properties": {"name": "Gold Market", "level": 0.0, "kind": "gold_buyer"}}, {"type": "Feature", "geometry": {"type": "Point", "coordinates": [2.3761642, 48.8440696]}, "properties": {"name": "Bagelstein", "level": 0.0, "kind": "fast_food"}}, {"type": "Feature", "geometry": {"type": "Point", "coordinates": [2.375979, 48.8439851]}, "properties": {"name": "Poke House", "level": 0.0, "kind": "fast_food"}}, {"type": "Feature", "geometry": {"type": "Point", "coordinates": [2.375919, 48.8439537]}, "properties": {"name": "Pret A Manger", "level": 0.0, "kind": "fast_food"}}, {"type": "Feature", "geometry": {"type": "Point", "coordinates": [2.3762093, 48.8441058]}, "properties": {"name": "Julien Dechenaud chocolatier", "level": 0.0, "kind": "chocolate"}}, {"type": "Feature", "geometry": {"type": "Point", "coordinates": [2.3767301, 48.8453935]}, "properties": {"name": "M\u00f4m' Frenay", "level": 0.0, "kind": "social_facility"}}, {"type": "Feature", "geometry": {"type": "Point", "coordinates": [2.3740885, 48.8430456]}, "properties": {"name": "Carrefour City", "level": 0.0, "kind": "convenience"}}, {"type": "Feature", "geometry": {"type": "Point", "coordinates": [2.3735698, 48.8450485]}, "properties": {"name": "Eric Kayser", "level": 1.0, "kind": "bakery"}}, {"type": "Feature", "geometry": {"type": "Point", "coordinates": [2.3757859, 48.8455807]}, "properties": {"name": "Olic\u00e9a", "level": 0.0, "kind": "restaurant"}}, {"type": "Feature", "geometry": {"type": "Point", "coordinates": [2.3714271, 48.8433183]}, "properties": {"name": "La Lunetterie", "level": 1.0, "kind": "optician"}}, {"type": "Feature", "geometry": {"type": "Point", "coordinates": [2.3727811, 48.8466602]}, "properties": {"name": "Nouilles en folie", "level": 0.0, "kind": "restaurant"}}, {"type": "Feature", "geometry": {"type": "Point", "coordinates": [2.3740588, 48.8465327]}, "properties": {"name": "Relax Beaut\u00e9", "level": 0.0, "kind": "beauty"}}, {"type": "Feature", "geometry": {"type": "Point", "coordinates": [2.3753177, 48.8462058]}, "properties": {"name": "Stow Your Bags", "level": 0.0, "kind": "luggage_locker"}}, {"type": "Feature", "geometry": {"type": "Point", "coordinates": [2.3746964, 48.846703]}, "properties": {"name": "MED-EL", "level": 0.0, "kind": "hearing_aids"}}, {"type": "Feature", "geometry": {"type": "Point", "coordinates": [2.3744168, 48.8462948]}, "properties": {"name": "Mina beaut\u00e9", "level": 0.0, "kind": "massage"}}, {"type": "Feature", "geometry": {"type": "Point", "coordinates": [2.3720624, 48.8460188]}, "properties": {"name": "Le P\u2019tit Train vert", "level": 0.0, "kind": "bakery"}}, {"type": "Feature", "geometry": {"type": "Point", "coordinates": [2.3733186, 48.8464621]}, "properties": {"name": "Proxi-Ongles", "level": 0.0, "kind": "beauty"}}, {"type": "Feature", "geometry": {"type": "Point", "coordinates": [2.3763, 48.8441938]}, "properties": {"name": "Baj", "level": 0.0, "kind": "bar"}}, {"type": "Feature", "geometry": {"type": "Point", "coordinates": [2.3723872, 48.8439556]}, "properties": {"name": "Europcar", "level": 1.0, "kind": "car_rental"}}, {"type": "Feature", "geometry": {"type": "Point", "coordinates": [2.3716399, 48.843489]}, "properties": {"name": "Mangiamo Italiano", "level": 1.0, "kind": "restaurant"}}, {"type": "Feature", "geometry": {"type": "Point", "coordinates": [2.3730913, 48.8445194]}, "properties": {"name": "Relay", "level": 1.0, "kind": "newsagent"}}, {"type": "Feature", "geometry": {"type": "Point", "coordinates": [2.3749137, 48.847194]}, "properties": {"name": "Asian Spa", "level": 0.0, "kind": "massage"}}, {"type": "Feature", "geometry": {"type": "Point", "coordinates": [2.3749515, 48.8472785]}, "properties": {"name": "Beauty Touch", "level": 0.0, "kind": "beauty"}}, {"type": "Feature", "geometry": {"type": "Point", "coordinates": [2.3749994, 48.8465608]}, "properties": {"name": "Espace Aubade", "level": 0.0, "kind": "bathroom_furnishing"}}, {"type": "Feature", "geometry": {"type": "Point", "coordinates": [2.3748325, 48.8463345]}, "properties": {"name": "Auto-\u00e9cole Soult", "level": 0.0, "kind": "driving_school"}}, {"type": "Feature", "geometry": {"type": "Point", "coordinates": [2.3737139, 48.8451626]}, "properties": {"name": "Relay", "level": 1.0, "kind": "tobacco"}}, {"type": "Feature", "geometry": {"type": "Point", "coordinates": [2.3751576, 48.8458536]}, "properties": {"name": "Best Istanbul Grill", "level": 0.0, "kind": "fast_food"}}, {"type": "Feature", "geometry": {"type": "Point", "coordinates": [2.3764681, 48.8460066]}, "properties": {"name": "Best Chicken", "level": 0.0, "kind": "fast_food"}}, {"type": "Feature", "geometry": {"type": "Point", "coordinates": [2.3732276, 48.8447601]}, "properties": {"name": "C\u00f4t\u00e9 Sushi", "level": 1.0, "kind": "fast_food"}}, {"type": "Feature", "geometry": {"type": "Point", "coordinates": [2.3737247, 48.846228]}, "properties": {"name": "Olga", "level": 0.0, "kind": "fast_food"}}, {"type": "Feature", "geometry": {"type": "Point", "coordinates": [2.3737264, 48.8464385]}, "properties": {"name": "Newzen", "level": 0.0, "kind": "massage"}}, {"type": "Feature", "geometry": {"type": "Point", "coordinates": [2.3737197, 48.8466278]}, "properties": {"name": "High-Tech Moving", "level": 0.0, "kind": "mobile_phone"}}, {"type": "Feature", "geometry": {"type": "Point", "coordinates": [2.3724756, 48.8466176]}, "properties": {"name": "Design & Vue", "level": 0.0, "kind": "optician"}}, {"type": "Feature", "geometry": {"type": "Point", "coordinates": [2.3734689, 48.84676]}, "properties": {"name": "Secrets D\u00e9sirs Love Store", "level": 0.0, "kind": "erotic"}}, {"type": "Feature", "geometry": {"type": "Point", "coordinates": [2.3748229, 48.8471805]}, "properties": {"name": "Cabinet d'Etiopathie", "level": 0.0, "kind": "massage"}}, {"type": "Feature", "geometry": {"type": "Point", "coordinates": [2.3743282, 48.8471117]}, "properties": {"name": "Club Atlantide Sauna", "level": 0.0, "kind": "swingerclub"}}, {"type": "Feature", "geometry": {"type": "Point", "coordinates": [2.373237, 48.8469564]}, "properties": {"name": "Atelier Curtis", "level": 0.0, "kind": "repair"}}, {"type": "Feature", "geometry": {"type": "Point", "coordinates": [2.3721123, 48.8437826]}, "properties": {"name": "Rentscape", "level": 0.0, "kind": "car_rental"}}, {"type": "Feature", "geometry": {"type": "Point", "coordinates": [2.3721791, 48.8438169]}, "properties": {"name": "enterprise", "level": 0.0, "kind": "car_rental"}}, {"type": "Feature", "geometry": {"type": "Point", "coordinates": [2.3740298, 48.8472069]}, "properties": {"name": "Beauty Salon", "level": 0.0, "kind": "hairdresser"}}, {"type": "Feature", "geometry": {"type": "Point", "coordinates": [2.3701119, 48.8462126]}, "properties": {"name": "L\u2019Arbre \u00e0 cadres", "level": 0.0, "kind": "frame"}}, {"type": "Feature", "geometry": {"type": "Point", "coordinates": [2.3733695, 48.8467428]}, "properties": {"name": "Tournesol Spa", "level": 0.0, "kind": "massage"}}, {"type": "Feature", "geometry": {"type": "Point", "coordinates": [2.371653, 48.8431663]}, "properties": {"name": "La Plateforme du B\u00e2timent", "level": 0.0, "kind": "trade"}}, {"type": "Feature", "geometry": {"type": "Point", "coordinates": [2.3716935, 48.8463602]}, "properties": {"name": "La Qu\u00e9b\u00e9coise", "level": 0.0, "kind": "restaurant"}}]}